,Unnamed: 0,PWSID,System Name,"County, Municipality",Client/System(agra),hyperlink,address,lat,lon,pwsid2
0,0,NJ1611309,SKYLINE DENTAL CARE,"Passaic, Ringwood Boro",10 Greenwood Lake Turnpike LLC,https://www9.state.nj.us/DEP_WaterWatch_public/JSP/Scheds.jsp?tinwsys=6691&active1=A,10 GREENWOOD LK TPKE Ringwood NJ 07456,41.0721111,-74.2809047,NJ1611309
1,1,NJ2104342,10-31 INC,"Warren, Blairstown Twp.",10-31 Inc (McGowan),https://www9.state.nj.us/DEP_WaterWatch_public/JSP/Scheds.jsp?tinwsys=8862&active1=A,2 WEST CRISMAN RD Blairstown Twp NJ 07825,40.9626094,-75.04026019999999,NJ2104342
2,2,NJ1414409,#45 SOUTH PLAZA PHASE #1,"Morris, Jefferson Twp",15 South Plaza 1 - Jefferson (Arch Bldg),https://www9.state.nj.us/DEP_WaterWatch_public/JSP/Scheds.jsp?tinwsys=5008&active1=A,706 RT 15 SOUTH Lake Hopatcong NJ 07849,40.9576699,-74.5981798,NJ1414409
3,3,NJ1414414,JEFFERSON STRIP MALL,"Morris, Jefferson Twp",15 South Plaza ll - Jefferson (Arch Bldg),https://www9.state.nj.us/DEP_WaterWatch_public/JSP/Scheds.jsp?tinwsys=5013&active1=A,706 RT 15 Jefferson Twp NJ 07849,40.9576699,-74.5981798,NJ1414414
4,4,NJ1106343,2490 PROFESSIONAL CENTER,"Mercer, Hopewell Twp",2490 Proffesional Center (MARLBORO),https://www9.state.nj.us/DEP_WaterWatch_public/JSP/Scheds.jsp?tinwsys=3341&active1=A,2490 PENNINGTON RD Pennington NJ 08534,40.30317230000001,-74.783205,NJ1106343
5,5,NJ1427364,ENVIRONMENTAL DEVELOPMENT ASSC,"Morris, Mount Olive Twp",3 Gold Mine Rd/Parks Property Management (formerly EDA),https://www9.state.nj.us/DEP_WaterWatch_public/JSP/Scheds.jsp?tinwsys=4462&active1=A,3 GOLD MINE RD Flanders NJ 07836,40.8803097,-74.6972171,NJ1427364
6,6,NJ1407319,415 ASSOCIATES,"Morris, Chester Twp",415 Associates,https://www9.state.nj.us/DEP_WaterWatch_public/JSP/Scheds.jsp?tinwsys=4374&active1=A,415 RT 24 Chester Twp NJ 07930,40.7788107,-74.6662541,NJ1407319
7,7,NJ1106400,84 HOPEWELL LLC,"Mercer, Hopewell Twp",84 Hopewell LLC (MARLBORO),https://www9.state.nj.us/DEP_WaterWatch_public/JSP/Scheds.jsp?tinwsys=8950&active1=A,84 RT 31 N STE 201 Pennington NJ 08534,40.3462766,-74.7972935,NJ1106400
8,8,NJ1905351,ACORN LANDING,"Sussex, Frankford Twp",Acorn Landing,https://www9.state.nj.us/DEP_WaterWatch_public/JSP/Scheds.jsp?tinwsys=8949&active1=A,96 BROAD ST Branchville NJ 07826,41.1397108,-74.7411364,NJ1905351
9,9,NJ1006373,ACORN MONTESSORI SCHOOL BUILDING #2,"Hunterdon, Clinton Twp",Acorn Montessori School Building # 2 (McGowan),https://www9.state.nj.us/DEP_WaterWatch_public/JSP/Scheds.jsp?tinwsys=9054&active1=A,1222 RT 31 BLDG 2 Clinton Twp NJ 08833,40.6009172,-74.8731451,NJ1006373
10,10,NJ1006333,ACORN MONTESSORI SCHOOL BUILDING # 3,"Hunterdon, Clinton Twp",Acorn Montessori School Building # 3 (McGowan),https://www9.state.nj.us/DEP_WaterWatch_public/JSP/Scheds.jsp?tinwsys=3684&active1=A,1222 RT 31 BLDG # 3 Lebanon NJ 08833,40.6009172,-74.8731451,NJ1006333
11,11,NJ1006376 ,ACORN MONTESSORI SCHOOL TODDLER HOUSE,"Hunterdon, Clinton Twp",Acorn Montessori School Building #5 - Toddler (McGowan),https://www9.state.nj.us/DEP_WaterWatch_public/JSP/Scheds.jsp?tinwsys=9057&active1=A,1222 RT 31 BLDG 5 Clinton NJ 08833,40.6009172,-74.8731451,NJ1006376
12,12,NJ1904352,ACORN PLAZA - SUPER X,"Sussex, Byram Twp",Acorn Plaza - Super X,https://www9.state.nj.us/DEP_WaterWatch_public/JSP/Scheds.jsp?tinwsys=7180&active1=A,8 RT 206 Byram Twp NJ 07874,40.92162,-74.7176578,NJ1904352
13,13,NJ1924348,AIRPORT GILL TWO,Sussex,Airport Diner,https://www9.state.nj.us/DEP_WaterWatch_public/JSP/Scheds.jsp?tinwsys=7064&active1=A,51 RT 639 Wantage Twp NJ 07461,41.2404056,-74.64004320000001,NJ1924348
14,14,NJ1001308 ,ALEXANDRIA MIDDLE SCHOOL,"Hunterdon, Alexandria Twp",Alexandria Middle School (MARLBORO),https://www9.state.nj.us/DEP_WaterWatch_public/JSP/Scheds.jsp?tinwsys=3369&active1=A,557 RT 513 Pittstown NJ 08867,40.5726884,-75.0132869,NJ1001308
15,15,NJ1615449,ALFA DEVELOPMENT INC.,"Passaic, West Milford Twp","Alfa Development (contact Jeremy Carr for access, before 8AM and after 3PM are the times he has given)",https://www9.state.nj.us/DEP_WaterWatch_public/JSP/Scheds.jsp?tinwsys=9195&active1=A,39 OAK RIDGE RD West Milford NJ 07480,41.0522517,-74.4607371,NJ1615449
16,16,NJ1414324,ALICES,"Morris, Jefferson Twp",Alice's Restaurant,https://www9.state.nj.us/DEP_WaterWatch_public/JSP/Scheds.jsp?tinwsys=4692&active1=A,24 NOLANS PT PARK RD Lake Hopatcong NJ 07849,40.9479543,-74.628472,NJ1414324
17,17,NJ1611318,ALL STAR KIDS ACADEMY,"Passaic, Ringwood Boro",All Star Kids Academy (McGowan),https://www9.state.nj.us/DEP_WaterWatch_public/JSP/Scheds.jsp?tinwsys=6761&active1=A,21 GREENWOOD LK TPKE Ringwood NJ 07456,41.0728312,-74.2815236,NJ1611318
18,18,NJ0110320,AMERICAN GALVANIZING CO,"Atlantic, Folsom Boro",American Galvanizing Company (MARLBORO),https://www9.state.nj.us/DEP_WaterWatch_public/JSP/Scheds.jsp?tinwsys=1147&active1=A,ROUTE 54 SOUTH OF BLACK HORSE PIKE Folsom NJ 08037,39.5952945,-74.8507727,NJ0110320
19,19,NJ1902359,ANDOVER MARKET,"Sussex, Andover Twp",Andover Krauzer's,https://www9.state.nj.us/DEP_WaterWatch_public/JSP/Scheds.jsp?tinwsys=8674&active1=A,454 RT 206 Andover NJ 07860,40.9997526,-74.7489466,NJ1902359
20,20,NJ1407313,AP CHESTER PROPERTIES LLC,"Morris, Chester Twp",AP Chester (McGowan) ,https://www9.state.nj.us/DEP_WaterWatch_public/JSP/Scheds.jsp?tinwsys=4368&active1=A,154 RT 206 Chester Twp NJ 07930,40.8013221,-74.7131766,NJ1407313
21,21,NJ1922397,APPALACHIAN MOTEL,"Sussex, Vernon Twp",Appalachian Motel,https://www9.state.nj.us/DEP_WaterWatch_public/JSP/Scheds.jsp?tinwsys=8888&active1=A,367 RT 94 Vernon NJ 07462,41.2057228,-74.4725974,NJ1922397
22,22,NJ1805390,APPLES & BOOKS LEARNING CENTER,"Somerset, Branchburg Twp",Apples & Books Learning Center (MARLBORO),https://www9.state.nj.us/DEP_WaterWatch_public/JSP/Scheds.jsp?tinwsys=8634&active1=A,1036 RT 202 S Branchburg Twp NJ 08876,40.5643119,-74.6948848,NJ1805390
23,23,NJ1002318,ASBURY GRAPHITE MILLS (O,"Hunterdon, Bethlehem Twp",Asbury Graphite Mills - Mill (McGowan) ,https://www9.state.nj.us/DEP_WaterWatch_public/JSP/Scheds.jsp?tinwsys=3457&active1=A,156 ASBURY WEST PORTAL RD Asbury NJ 08802,40.693652,-75.0107537,NJ1002318
24,24,NJ2105326,ASBURY GRAPHITE MILLS INC,"Warren, Franklin Twp",Asbury Graphite Mills - Office (McGowan),https://www9.state.nj.us/DEP_WaterWatch_public/JSP/Scheds.jsp?tinwsys=8379&active1=A,405 OLD MAIN ST AKA WEST PORTAL ASBURY RD Asbury NJ 08802,40.6997446,-75.0119861,NJ2105326
25,25,NJ1414316,B & J MARKET,"Morris, Jefferson Twp",B&J Market,https://www9.state.nj.us/DEP_WaterWatch_public/JSP/Scheds.jsp?tinwsys=4684&active1=A,5 EDISON RD Lake Hopatcong NJ 07849,40.9597487,-74.61215829999999,NJ1414316
26,26,NJ1602301,SHELL OIL CO,"Passaic, Clifton",B.P Gas Station Clifton/Shell (McGowan),https://www9.state.nj.us/DEP_WaterWatch_public/JSP/Scheds.jsp?tinwsys=6541&active1=A,300 RT 3 WEST BOUND Clifton NJ 07014,40.829146,-74.1368172,NJ1602301
27,27,NJ1902317,RAYS INN,"Sussex, Andover Twp",Bare Den (X Rays),https://www9.state.nj.us/DEP_WaterWatch_public/JSP/Scheds.jsp?tinwsys=8100&active1=A,641 RT 206 Andover Twp NJ 07860,41.009834,-74.76052039999999,NJ1902317
28,28,NJ1106339,BCJ&R,"Mercer, Hopewell Twp",BCJ&R (MARLBORO),https://www9.state.nj.us/DEP_WaterWatch_public/JSP/Scheds.jsp?tinwsys=3337&active1=A,2425 PENNINGTON RD Hopewell Twp NJ 08560,40.2991132,-74.7862327,NJ1106339
29,29,NJ1414413,BEANSTALK ACADEMY 2,"Morris, Roxbury",Beanstalk Academy 2,https://www9.state.nj.us/DEP_WaterWatch_public/JSP/Scheds.jsp?tinwsys=5012&active1=A,155 LAKESIDE BLVD Landing NJ 07850,40.9080929,-74.6668543,NJ1414413
30,30,NJ2123318,BELVIDERE DINER,"Warren, White Twp",Belvidere Diner (Flavorz Bar and Grill),https://www9.state.nj.us/DEP_WaterWatch_public/JSP/Scheds.jsp?tinwsys=8542&active1=A,475 RT 46 EAST White Twp NJ 07829,40.8403631,-75.0342986,NJ2123318
31,31,NJ1022305,BERRY PATCH EARLY LEARNING,"Hunterdon, Flemington",Berry Patch,https://www9.state.nj.us/DEP_WaterWatch_public/JSP/Scheds.jsp?tinwsys=3695&active1=A,1083 COUNTRY RD 523 Readington Twp NJ 08889,40.5396305,-74.83403559999999,NJ1022305
32,32,NJ1432330,BLACK RIVER BARN,"Morris, Randolph",Black River Barn,https://www9.state.nj.us/DEP_WaterWatch_public/JSP/Scheds.jsp?tinwsys=6064&active1=A,1178 RT 10 WEST Randolph Twp NJ 07869,40.8617525,-74.6261814,NJ1432330
33,33,NJ1805376,BRANCHBURG FAMILY HEALTH CENTER,"Somerset, Branchburg Twp",Branchburg Family Health Center (MARLBORO - Inactive PWS),https://www9.state.nj.us/DEP_WaterWatch_public/JSP/WSDetail.jsp?tinwsys=7227,2143 SOUTH BRANCH RD Branchburg Twp NJ 08876,40.5455258,-74.7011957,NJ1805376
34,34,NJ1806302,BRIDGEWATER INN,"Somerset, Bridgewater Twp",Bridgewater Inn ** Call Pei Tsai (908-346-3662) 3 days in advance to schedule. ,https://www9.state.nj.us/DEP_WaterWatch_public/JSP/Scheds.jsp?tinwsys=7241&active1=A,1271 RT 22 WEST Bridgewater NJ 08807,40.5787251,-74.5804248,NJ1806302
35,35,NJ1021426,BRITE SIDE ADULT CARE CENTER,"Hunterdon, Raritan Twp",Briteside Adult Care,https://www9.state.nj.us/DEP_WaterWatch_public/JSP/Scheds.jsp?tinwsys=3628&active1=A,16 SAND HILL RD Raritan Twp NJ 08822,40.5380521,-74.8612899,NJ1021426
36,36,NJ1427374,BUDD LAKE DINER,"Morris, Mount Olive",Budd Lake Diner,https://www9.state.nj.us/DEP_WaterWatch_public/JSP/Scheds.jsp?tinwsys=4472&active1=A,120 RT 46 Budd Lake NJ 07828,40.882044,-74.7316139,NJ1427374
37,37,NJ1019336,BUNNVALE ASSEMBLY OF GOD,"Hunterdon, Lebanon Twp",Bunnvale Assembly of God,https://www9.state.nj.us/DEP_WaterWatch_public/JSP/Scheds.jsp?tinwsys=4314&active1=A,285 RT 513 Lebanon Twp NJ 07830,40.7018761,-74.8842001,NJ1019336
38,38,NJ0317303,BURLINGTON CNTY SPEC SRV,"Burlington, Lumbertown Twp.",Burlington County Special Services (MARLBORO),https://www9.state.nj.us/DEP_WaterWatch_public/JSP/Scheds.jsp?tinwsys=1753&active1=A,71 ARK RD Lumberton NJ 08060,39.9325902,-74.8524493,NJ0317303
39,39,NJ1403001,BUTLER WATER DEPT,"Morris, Butler Boro",Butler,https://www9.state.nj.us/DEP_WaterWatch_public/JSP/Scheds.jsp?tinwsys=396&active1=A,100 CASCADE WAY Kinnelon NJ 07405,40.9940342,-74.3512598,NJ1403001
40,40,NJ1904319,BYRAM TWP FIRE CO,"Sussex, Byram Twp",Byram Fire Dept,https://www9.state.nj.us/DEP_WaterWatch_public/JSP/Scheds.jsp?tinwsys=7025&active1=A,255 RT 206 Andover NJ 07821,40.9997131,-74.7487892,NJ1904319
41,41,NJ1904302,BYRAM LAKES ELEM SCHOOL,"Sussex, Byram Twp",Byram Lakes Elementary School (McGowan),https://www9.state.nj.us/DEP_WaterWatch_public/JSP/Scheds.jsp?tinwsys=6952&active1=A,12 MANSFIELD DR Byram Twp NJ 07874,40.9350747,-74.70508269999999,NJ1904302
42,42,NJ1904311,TOWNSHIP OF BYRAM MUNIC,"Sussex, Byram Twp",Byram Municipal Building ***must call Mike Orgera 24hr ahead to sch @973-769-0843 or 973-347-2500 ext 137,https://www9.state.nj.us/DEP_WaterWatch_public/JSP/Scheds.jsp?tinwsys=7017&active1=A,10 MANSFIELD DR Byram Twp NJ 07874,40.9365668,-74.7066787,NJ1904311
43,43,NJ1106362,CAMELOT NURSERY SCHOOL,"Mercer, Hopewell Twp",Camelot Nursery School (MARLBORO),https://www9.state.nj.us/DEP_WaterWatch_public/JSP/Scheds.jsp?tinwsys=3417&active1=A,31 FLOWER HILL DR Hopewell Twp NJ 08534,40.2898296,-74.7764739,NJ1106362
44,44,NJ1902308,CASA BELLISIMA,"Sussex, Andover Twp",Casa Bellisima,https://www9.state.nj.us/DEP_WaterWatch_public/JSP/Scheds.jsp?tinwsys=8091&active1=A,269 NEWTON SPARTA RD Andover Twp NJ 07860,41.0367427,-74.69598239999999,NJ1902308
45,45,NJ1432311,CASA DE PASTA,"Morris, Randolph","Casa De Pasta (call ahead to schedule, restaurant not open every day)",https://www9.state.nj.us/DEP_WaterWatch_public/JSP/Scheds.jsp?tinwsys=5987&active1=A,1438 SUSSEX TPKE Randolph Twp NJ 07869,40.8454261,-74.60833769999999,NJ1432311
46,46,NJ0704001,CEDAR GROVE WATER DEPT,"Essex, Cedar Grove Twp",Cedar Grove Water Dept (Call/email Mike Grasso),https://www9.state.nj.us/DEP_WaterWatch_public/JSP/Scheds.jsp?tinwsys=117&active1=A,340 LITTLE FALLS RD Cedar Grove NJ 07009,40.8653511,-74.2235556,NJ0704001
47,47,NJ1904354,CENTER OF HUMANISTIC CHANGE,"Sussex, Byram Twp",Center for Humanistic Change,https://www9.state.nj.us/DEP_WaterWatch_public/JSP/Scheds.jsp?tinwsys=7182&active1=A,12 RT 206 Byram Twp NJ 07874,40.9223067,-74.71788649999999,NJ1904354
48,48,NJ1309422,CHASE NJ1- 0072,"Monmouth, Colts Neck Twp",Chase Bank (MARLBORO),https://www9.state.nj.us/DEP_WaterWatch_public/JSP/Scheds.jsp?tinwsys=8959&active1=A,80 STATE RTE 34 SOUTH Colts Neck NJ 07722,40.2358887,-74.1505351,NJ1309422
49,49,NJ1809304,CHENGDU 1 PALACE INC,"Somerset, Green Brook Twp.",Chengdu Palace (MARLBORO),https://www9.state.nj.us/DEP_WaterWatch_public/JSP/Scheds.jsp?tinwsys=7630&active1=A,100 RT 22 WEST Green Brook Twp NJ 08812,40.6060389,-74.4717502,NJ1809304
50,50,NJ1407303,BLACK RIVER MIDDLE SCHOOL,"Morris, Chester Twp",Chester BOE Black River MS (McGowan) *Contact Evan*,https://www9.state.nj.us/DEP_WaterWatch_public/JSP/Scheds.jsp?tinwsys=5564&active1=A,133 NORTH RD Chester Twp NJ 07930,40.796475,-74.6725203,NJ1407303
51,51,NJ1407300,BRAGG ELEMENTARY SCHOOL,"Morris, Chester Twp",Chester BOE Bragg School (McGowan) *Contact Evan*,https://www9.state.nj.us/DEP_WaterWatch_public/JSP/Scheds.jsp?tinwsys=5561&active1=A,250 RT 24 Chester Twp NJ 07930,40.783597,-74.6794379,NJ1407300
52,52,NJ1407301,DICKERSON ELEMENTARY.SCHOOL,"Morris, Chester Twp",Chester BOE Dickerson ES (McGowan) *Contact Evan*,https://www9.state.nj.us/DEP_WaterWatch_public/JSP/Scheds.jsp?tinwsys=5562&active1=A,250 RT 24 Chester Twp NJ 07930,40.783597,-74.6794379,NJ1407301
53,53,NJ1407304,HIGHLANDS BUILDING,"Morris, Chester Twp",Chester Twp - Highlands Bldg (McGowan) ,https://www9.state.nj.us/DEP_WaterWatch_public/JSP/Scheds.jsp?tinwsys=4359&active1=A,100 NORTH RD Chester Twp NJ 07930,40.7924411,-74.6715598,NJ1407304
54,54,NJ1407321,CHESTER WOODS PROFESSIONAL PARK,"Morris, Chester Twp",Chester Woods Professional Park (McGowan),https://www9.state.nj.us/DEP_WaterWatch_public/JSP/Scheds.jsp?tinwsys=4376&active1=A,385 RT 24 Chester Twp NJ 07930,40.780842,-74.668108,NJ1407321
55,55,NJ1438343,CHRISTADELPHIA BIBLE CAMP,"Morris, Washington Twp",Christadelphian BC (+Seasonal pool),https://www9.state.nj.us/DEP_WaterWatch_public/JSP/Scheds.jsp?tinwsys=6795&active1=A,286 SCHOOLEYS MOUNTAIN RD Schooleys Mountain NJ 07870,40.8056275,-74.8155854,NJ1438343
56,56,NJ2113301,CLOVER REST HOME,"Warren, Knowlton Twp",Clover Rest Home,https://www9.state.nj.us/DEP_WaterWatch_public/JSP/Scheds.jsp?tinwsys=8144&active1=A,28 WASHINGTON ST Columbia NJ 07832,40.9254626,-75.0939195,NJ2113301
57,57,NJ0334319,COLUMBUS MART FLEX 1&2,"Burlington, Springfield Twp",Columbus Mart Flex 1&2 (MARLBORO),https://www9.state.nj.us/DEP_WaterWatch_public/JSP/Scheds.jsp?tinwsys=9258&active1=A,2919 RT 206 Columbus NJ 08022,40.0539885,-74.72648269999999,NJ0334319
58,58,NJ0334320,COLUMBUS MART FLEX 3&4,"Burlington, Springfield Twp",Columbus Mart Flex 3&4 (MARLBORO),https://www9.state.nj.us/DEP_WaterWatch_public/JSP/Scheds.jsp?tinwsys=9259&active1=A,2919 RT 206 Columbus NJ 08022,40.0539885,-74.72648269999999,NJ0334320
59,59,NJ0334316,COLUMBUS SHOPPING CENTER,"Burlington, Springfield Twp",Columbus Shopping Center (MARLBORO - McGowan) 2x POEs,https://www9.state.nj.us/DEP_WaterWatch_public/JSP/Scheds.jsp?tinwsys=1833&active1=A,2919 RT 206 Springfield NJ 08022,40.0539885,-74.72648269999999,NJ0334316
60,60,NJ0105304,COMAR INC,"Atlantic, Buena Vista",Comar Inc. (MARLBORO),https://www9.state.nj.us/DEP_WaterWatch_public/JSP/Scheds.jsp?tinwsys=912&active1=A,1 COMAR PLACE Buena Vista Twp NJ 08310,39.4924319,-74.9037044,NJ0105304
61,61,NJ1106399,CORNER STONE COURT,"Mercer, Hopewell Twp",Corner Stone Court (MARLBORO),https://www9.state.nj.us/DEP_WaterWatch_public/JSP/Scheds.jsp?tinwsys=8832&active1=A,1 TREE FARM RD Hopewell NJ 08534,40.33640370000001,-74.7983447,NJ1106399
62,62,NJ1413324,ONCE ALPHA LLC,"Morris, Harding Twp",Country Fox Caf aka La Di Da Caf (now Jolie) ,https://www9.state.nj.us/DEP_WaterWatch_public/JSP/Scheds.jsp?tinwsys=9301&active1=A,12 VILLAGE RD New Vernon NJ 07976,40.7442667,-74.4951938,NJ1413324
63,63,NJ2123003,"COUNTRY VIEW VILLAGE, LLC","Warren, White Twp.",Country View Village (Bob Waldele samples),https://www9.state.nj.us/DEP_WaterWatch_public/JSP/Scheds.jsp?tinwsys=818&active1=A,RT 519 & RT 620 Belvidere NJ 07823,40.82982,-75.07767470000002,NJ2123003
64,64,NJ1904454,CRANBERRY MARKET & DELI,"Sussex, Byram Twp",Cranberry Market & Deli,https://www9.state.nj.us/DEP_WaterWatch_public/JSP/Scheds.jsp?tinwsys=7254&active1=A,274 US HWY 206 Byram Twp NJ 07821,40.9553034,-74.7359243,NJ1904454
65,65,NJ1202318 ,CRANBURY BUICK GMC,"Middlesex, Cranbury Twp",Cranbury Buick GMC aka Perrine Pontiac (MARLBORO),https://www9.state.nj.us/DEP_WaterWatch_public/JSP/Scheds.jsp?tinwsys=5098&active1=A,270 RT 130 NORTH Cranbury NJ 08512,40.1384964,-74.7100672,NJ1202318
66,66,NJ1904364,CREATIVE KIDKARE,"Sussex, Byram Twp",Creative Kidkare (McGowan),https://www9.state.nj.us/DEP_WaterWatch_public/JSP/Scheds.jsp?tinwsys=7249&active1=A,7 B LACKAWANNA DR Byram Twp NJ 07821,40.9333018,-74.71777209999999,NJ1904364
67,67,NJ1904455,CVS OF BYRAM,"Sussex, Byram Twp",CVS of Byram,https://www9.state.nj.us/DEP_WaterWatch_public/JSP/Scheds.jsp?tinwsys=9401&active1=A,77 US RT 206 Stanhope NJ 07874,40.9122832,-74.7173527,NJ1904455
68,68,NJ1905325,DALES MARKET & JIMMY PIZZA,"Sussex, Frankford Twp",Dale's Market/Jimmy's Pizza - Seasonal *Qtly/Monthly,https://www9.state.nj.us/DEP_WaterWatch_public/JSP/Scheds.jsp?tinwsys=7338&active1=A,396 RT 206 Frankford Twp NJ 07826,41.1568298,-74.7815705,NJ1905325
69,69,NJ2113344,DELAWARE WATER GAP TRAVEL PLAZA,"Warren, Knowlton Twp",Delaware Travel Plaza (McGowan) *Opens at 11AM*,https://www9.state.nj.us/DEP_WaterWatch_public/JSP/Scheds.jsp?tinwsys=9488&active1=A,17 SIMPSON RD Knowlton Twp NJ 07832,40.9339198,-75.1011915,NJ2113344
70,70,NJ1001303,DELAWARE VALLEY REGIONAL,"Hunterdon, Alexandria Twp",Delaware Valley Regional (MARLBORO - McGowan),https://www9.state.nj.us/DEP_WaterWatch_public/JSP/Scheds.jsp?tinwsys=3364&active1=A,19 SENATOR STOUT RD Alexandria Twp NJ 08867,40.56279420000001,-75.005436,NJ1001303
71,71,NJ0119001,DELILAH TERRACE MHP,"Atlantic, Pleasantville City",Delilah's Terrace MHP (MARLBORO - McGowan),https://www9.state.nj.us/DEP_WaterWatch_public/JSP/Scheds.jsp?tinwsys=24&active1=A,DELILAH RD Egg Harbor Twp NJ 08232,39.4136928,-74.5337606,NJ0119001
72,72,NJ1922382,DISCOVERY YEARS,"Sussex, Vernon Twp",Discovery Years *also has seasonal POOL*,https://www9.state.nj.us/DEP_WaterWatch_public/JSP/Scheds.jsp?tinwsys=8055&active1=A,54 MAPLE GRANGE RD Vernon NJ 07419,41.2216876,-74.4739482,NJ1922382
73,73,NJ1409001,DOVER WATER COMMISSION,"Morris, Dover Town",Dover,https://www9.state.nj.us/DEP_WaterWatch_public/JSP/Scheds.jsp?tinwsys=404&active1=A,100 PRINCETON AVENUE Dover NJ 07849,40.889077,-74.5687549,NJ1409001
74,74,NJ1332363,DUGANS CORNER CENTER,"Monmouth, Millstone Twp",Dugan's Corner (Five Points Management) (MARLBORO),https://www9.state.nj.us/DEP_WaterWatch_public/JSP/Scheds.jsp?tinwsys=8600&active1=A,514 RT 33 Millstone Twp NJ 07726,40.2606755,-74.4069896,NJ1332363
75,75,NJ1612305,DUNKIN DONUTS 46,"Passaic, Totowa Boro",Dunkin Donuts 46 (Totowa),https://www9.state.nj.us/DEP_WaterWatch_public/JSP/Scheds.jsp?tinwsys=9388&active1=A,580 RT 46 EAST Totowa Boro NJ 07512,40.8944653,-74.2390709,NJ1612305
76,76,NJ0706002,ESSEX FELLS WATER HILLTOP SYSTEM,"Essex, Essex Fells Boro",Essex Fells - Hilltop (NJ0706002),https://www9.state.nj.us/DEP_WaterWatch_public/JSP/Scheds.jsp?tinwsys=8911&active1=A,225 ROSELAND AVE Essex Fells NJ 07021,40.8314595,-74.2829861,NJ0706002
77,77,NJ0706001,ESSEX FELLS WATER DEPT,"Essex, Essex Fells Boro",Essex Fells - Main (NJ0706001),https://www9.state.nj.us/DEP_WaterWatch_public/JSP/Scheds.jsp?tinwsys=120&active1=A,307 RUNNYMEDE RD Essex Fells NJ 07021,40.8320945,-74.28768889999999,NJ0706001
78,78,NJ1415001,FAYSON LAKES WATER COMPANY INC,"Morris, Kinnelon Boro","Fayson Lakes Water Co. (1st Tuesday, with dropoff and sometimes sampling)",https://www9.state.nj.us/DEP_WaterWatch_public/JSP/Scheds.jsp?tinwsys=339&active1=A,FAYSON LK WATER COMPANY 160 BOONTON AVE Kinnelon NJ 07405,40.96988109999999,-74.361886,NJ1415001
79,79,NJ2104344,FIRST HOPE BANK,"Warren, Blairstown Twp.",First Hope Bank (need to schedule ahead) (McGowan),https://www9.state.nj.us/DEP_WaterWatch_public/JSP/Scheds.jsp?tinwsys=9064&active1=A,201 ROUTE 94 Knowlton Twp NJ 07832,40.9771525,-75.01433670000002,NJ2104344
80,80,NJ1413315,FIRST PRESBYTERIAN CHURCH,"Morris, Harding Twp",First Presbyterian Church & Manse (NFC) - sample church and manse (Manse - 16 Lees Hill Rd),https://www9.state.nj.us/DEP_WaterWatch_public/JSP/Scheds.jsp?tinwsys=4596&active1=A,2 LEE HILLS ROAD New Vernon NJ 07976,40.7208993,-74.4818698,NJ1413315
81,81,NJ1006359,FIRST STEP LEARNING CTR,"Hunterdon, Clinton Twp",First Step Learning Center *NEW Client* Get more info/Make Folder in 002,https://www9.state.nj.us/DEP_WaterWatch_public/JSP/Scheds.jsp?tinwsys=3769&active1=A,3 HAYTOWN RD Lebanon NJ 08833,40.6584124,-74.8298317,NJ1006359
82,82,NJ2104340,FITNESS EMPIRE,"Warren, Blairstown Twp.",Fitness Empire (schedule ahead with Barbara P Fiume),https://www9.state.nj.us/DEP_WaterWatch_public/JSP/Scheds.jsp?tinwsys=8786&active1=A,143 RT 94 Blairstown NJ 07825,40.9830238,-74.99114809999999,NJ2104340
83,83,NJ1427403,FLANDERS VALLEY DAY CARE,"Morris, Mount Olive Twp",Flanders Valley Country Day School,https://www9.state.nj.us/DEP_WaterWatch_public/JSP/Scheds.jsp?tinwsys=8865&active1=A,6 BARTLEY CHESTER RD Mount Olive Twp NJ 07828,40.8270296,-74.7204014,NJ1427403
84,84,	NJ2116326,FLEXCO MICROWAVE INC,"Warren, Mansfield Twp",Flexco Microwave (McGowan),https://www9.state.nj.us/DEP_WaterWatch_public/JSP/Scheds.jsp?tinwsys=8330&active1=A,BOX 115 Mansfield Twp NJ 07865,40.7894082,-74.9150313,NJ2116326
85,85,NJ1904003,FOREST LAKES W CO,"Sussex, Byram Twp",Forest Lakes Water Co,https://www9.state.nj.us/DEP_WaterWatch_public/JSP/Scheds.jsp?tinwsys=649&active1=A,FOREST LAKE DR Byram Twp NJ 07874,40.9760964,-74.7322141,NJ1904003
86,86,NJ2106304,FOREST MANOR RETIREMENT HOME,"Warren, Frelinghuysen Twp",Forest Manor Health Center,https://www9.state.nj.us/DEP_WaterWatch_public/JSP/Scheds.jsp?tinwsys=8387&active1=A,145 STATE PARK RD Frelinghuysen Twp NJ 07844,40.9226853,-74.9264488,NJ2106304
87,87,NJ1311001,FORT MONMOUTH MAIN BASE,"Monmouth, Eatontown Boro",Fort Monmouth (MARLBORO),https://www9.state.nj.us/DEP_WaterWatch_public/JSP/Scheds.jsp?tinwsys=348&active1=A,FMERA 502 CARAN FRANZINI WAY Oceanport Boro NJ 07757,40.3136857,-74.0440593,NJ1311001
88,88,NJ1006316,FOUNTAIN MOTEL,"Hunterdon, Clinton Twp",Fountain Motel  ** Call Pei Tsai (908-346-3662) 3 days in advance to schedule. ,https://www9.state.nj.us/DEP_WaterWatch_public/JSP/Scheds.jsp?tinwsys=3609&active1=A,1031 RT 22 E Lebanon NJ 08833,40.6421787,-74.8069139,NJ1006316
89,89,NJ1905336,FRANKFORD TOWNSHIP SCHOOL,"Sussex, Frankford Twp",Frankford Twp School *email Brian ahead before scheduling. bansemerb@frankfordschool.org *,https://www9.state.nj.us/DEP_WaterWatch_public/JSP/Scheds.jsp?tinwsys=7408&active1=A,2 PINES RD Frankford Twp NJ 07826,41.1391309,-74.7372731,NJ1905336
90,90,NJ1924329,FRANKLIN SUSSEX AUTOMALL INC,"Sussex, Wantage",Franklin Sussex Auto Mall (McGowan),https://www9.state.nj.us/DEP_WaterWatch_public/JSP/Scheds.jsp?tinwsys=6988&active1=A,303 RT 23 NORTH Wantage Twp NJ 07461,41.1945064,-74.587612,NJ1924329
91,91,NJ2106307,FRELINGHUYSEN TWP ELM SC,"Warren, Frelinghuysen Twp",Frelinghuysen Twp ES (McGowan),https://www9.state.nj.us/DEP_WaterWatch_public/JSP/Scheds.jsp?tinwsys=8390&active1=A,780 RT 94 Frelinghuysen Twp NJ 07860,40.989027,-74.868601,NJ2106307
92,92,NJ1913311,FRIAR MOUNTAIN MINI MALL,"Sussex, Lafayette Twp.",Friar Mountain Mini Mall (11 Highway 15),https://www9.state.nj.us/DEP_WaterWatch_public/JSP/Scheds.jsp?tinwsys=6966&active1=A,11 RT 15 S Lafayette NJ 07470,41.0846981,-74.67229170000002,NJ1913311
93,93,NJ1006357,DOGWOOD DRIVE REALTY LLC,"Hunterdon, Clinton Twp",Gebhardt & Kiefer/Dogwood Drive (McGowan),https://www9.state.nj.us/DEP_WaterWatch_public/JSP/Scheds.jsp?tinwsys=3767&active1=A,1318 RT 31 Clinton NJ 08809,40.6218982,-74.8802851,NJ1006357
94,94,NJ1332329,GEDI CORPORATE PLAZA,"Monmouth, Millstone Twp",Gedi Corporate Plaza (MARLBORO),https://www9.state.nj.us/DEP_WaterWatch_public/JSP/Scheds.jsp?tinwsys=4892&active1=A,490 RT 33 WEST Millstone Twp NJ 08535,40.2606032,-74.4025004,NJ1332329
95,95,NJ0818473,GLOUCESTER COUNTY COMM CHURCH,"Gloucester, Washington Twp",Gloucester Co. Comm Church (MARLBORO),https://www9.state.nj.us/DEP_WaterWatch_public/JSP/Scheds.jsp?tinwsys=3222&active1=A,359 CHAPEL HTS RD Washington Twp NJ 08080,39.7389763,-75.10241610000001,NJ0818473
96,96,NJ1113315,GODDARD SCHOOL - WEST WINDSOR,"Mercer, West Windsor Twp",Goddard School (West Windsor) (MARLBORO),https://www9.state.nj.us/DEP_WaterWatch_public/JSP/Scheds.jsp?tinwsys=8791&active1=A,1300-1306 WINDSOR RD West Windsor Twp NJ 08550,40.30196,-74.615372,NJ1113315
97,97,NJ1902347,GOOD SHEPHERD RC CHURCH,"Sussex, Andover Twp",Good Shepherd R.C. Church,https://www9.state.nj.us/DEP_WaterWatch_public/JSP/Scheds.jsp?tinwsys=6938&active1=A,48 TRANQUILITY RD Andover NJ 07821,40.9761473,-74.7485657,NJ1902347
98,98,NJ1904357,GORDON BYRAM ASSOC LLC,"Sussex, Byram Twp",Gordon Byram Shop Rite,https://www9.state.nj.us/DEP_WaterWatch_public/JSP/Scheds.jsp?tinwsys=7185&active1=A,90 RT 206 Byram Twp NJ 07821,40.935512,-74.71971549999999,NJ1904357
99,99,NJ1615337,GRACE FELLOWSHIP CHURCH,"Passaic, West Milford Twp","Grace Fellowship Church (McGowan) - call ahead for access, POE sometimes locked (garage ontop of hill)",https://www9.state.nj.us/DEP_WaterWatch_public/JSP/Scheds.jsp?tinwsys=5752&active1=A,37 STEPHENS RD West Milford NJ 07480,41.1041034,-74.4063386,NJ1615337
100,100,NJ0202304,GREATER NY COUNCIL BOY SCOUTS OF AMERICA,"Bergen, Alpine Boro",Greater NY Council Boy Scouts - Alpine (*ALSO POOL SEASONAL*,https://www9.state.nj.us/DEP_WaterWatch_public/JSP/Scheds.jsp?tinwsys=8664&active1=A,441 RT 9W Alpine NJ 07620,40.9821013,-73.91537319999999,NJ0202304
101,101,NJ1615412,GREENWOOD LAKE AIRPORT MG,"Passaic, West Milford Twp",Greenwood Lake Airport,https://www9.state.nj.us/DEP_WaterWatch_public/JSP/Scheds.jsp?tinwsys=7363&active1=A,126 AIRPORT RD West Milford NJ 07480,41.1291796,-74.3428928,NJ1615412
102,102,NJ1332324,GREIF BROTHERS INC,"Monmouth, Millstone Twp",Greif Inc (MARLBORO),https://www9.state.nj.us/DEP_WaterWatch_public/JSP/Scheds.jsp?tinwsys=4826&active1=A,200 RIKE DR Millstone Twp NJ 08535,40.2510798,-74.4372661,NJ1332324
103,103,NJ1436304,DANIEL VAN VOLKENBURG DDS,"Morris, Roxbury",Grossman Pediatric Health Pavillion - Now Volkenburgh (McGowan),https://www9.state.nj.us/DEP_WaterWatch_public/JSP/Scheds.jsp?tinwsys=6392&active1=A,1911 RT 46 Roxbury Twp NJ 07857,40.8934561,-74.68857369999999,NJ1436304
104,104,NJ2119303,G20 TECHNOLOGIES LLC,"Warren, Phillipsburg Town",Gulbrandsen Technologies Inc (G20 Tech) (McGowan),https://www9.state.nj.us/DEP_WaterWatch_public/JSP/Scheds.jsp?tinwsys=9140&active1=A,1 RIVERSIDE WAY Phillipsburg NJ 08865,40.6964846,-75.2011019,NJ2119303
105,105,NJ1909001,HAMBURG BOARD OF PUBLIC,"Hamburg, Sussex",Hamburg (John Perry),https://www9.state.nj.us/DEP_WaterWatch_public/JSP/Scheds.jsp?tinwsys=664&active1=A,GINGERBREAD CASTLE RD Hamburg NJ 07419,41.146487,-74.5766526,NJ1909001
106,106,NJ1413300,HARDING TWP ELEMENTARY SCHOOL,"Morris, Harding Twp",Harding Twp BOE Elementary,https://www9.state.nj.us/DEP_WaterWatch_public/JSP/Scheds.jsp?tinwsys=4527&active1=A,34 LEES HILL RD New Vernon NJ 07976,40.7418878,-74.50171089999999,NJ1413300
107,107,NJ1413301,HARDING TWP JR SCHOOL (FT BL,"Morris, Harding Twp",Harding Twp BOE Middle (Jr School),https://www9.state.nj.us/DEP_WaterWatch_public/JSP/Scheds.jsp?tinwsys=4528&active1=A,34 LEES HILL RD New Vernon NJ 07976,40.7418878,-74.50171089999999,NJ1413301
108,108,NJ1413325,HARDING TOWNSHIP LIBRARY,"Morris, Harding Twp",Harding Twp Library - Kemmerer,https://www9.state.nj.us/DEP_WaterWatch_public/JSP/Scheds.jsp?tinwsys=9492&active1=A,19 BLUE MILL RD New Vernon NJ 07976,40.7479303,-74.493549,NJ1413325
109,109,NJ1911300,HARDYSTON TWP ELEM SCHOOL,"Sussex, Hardyston Twp",Hardyston Elementary School (McGowan),https://www9.state.nj.us/DEP_WaterWatch_public/JSP/Scheds.jsp?tinwsys=7809&active1=A,50 RT 23 Franklin NJ 07416,41.1045532,-74.5790061,NJ1911300
110,110,NJ1911343,HARDYSTON TWP MIDDLE SCHOOL,"Sussex, Hardyston Twp",Hardyston Middle School (McGowan),https://www9.state.nj.us/DEP_WaterWatch_public/JSP/Scheds.jsp?tinwsys=8599&active1=A,183 WHEATSWORTH RD Hamburg NJ 07419,41.13780819999999,-74.5918193,NJ1911343
111,111,NJ2110311,HARMONY SPIRITS & GROCERY,"Warren, Harmony Twp.",Harmony Spirits & Grocery,https://www9.state.nj.us/DEP_WaterWatch_public/JSP/Scheds.jsp?tinwsys=8531&active1=A,2330 BELVIDERE RD Harmony Twp NJ 08865,40.73535440000001,-75.1418142,NJ2110311
112,112,NJ1413304,HAROLD A THORPE,"Morris, Harding Twp",Harold Thorpe Bldg (Jim Thorpe),https://www9.state.nj.us/DEP_WaterWatch_public/JSP/Scheds.jsp?tinwsys=4531&active1=A,914 MT KEMBLE AVE AKA RT 202 Harding Twp NJ 07940,40.7461764,-74.5315662,NJ1413304
113,113,NJ1604001,HAWTHORNE WATER DEPARTMENT,"Passaic, Hawthorne Boro",Hawthorne - pickups/weekly check/qtly samples ,https://www9.state.nj.us/DEP_WaterWatch_public/JSP/Scheds.jsp?tinwsys=500&active1=A,445 LAFAYETTE AVE Hawthorne Boro NJ 07506,40.9535226,-74.15487,NJ1604001
114,114,NJ1407339,KAREN'S HOUSE,"Morris, Chester Twp",Healing at Hidden River/Karen's House (must schedule ahead with Dawn),https://www9.state.nj.us/DEP_WaterWatch_public/JSP/Scheds.jsp?tinwsys=9544&active1=A,230 POTTERSVILLE RD Chester NJ 07930,40.758047,-74.71325,NJ1407339
115,115,NJ1004300,HICKORY RUN FAMILY PRACTICE,"Hunterdon, Lebanon Twp",Hickory Run Family Practice,https://www9.state.nj.us/DEP_WaterWatch_public/JSP/Scheds.jsp?tinwsys=3522&active1=A,384 RT 513 Lebanon NJ 07830,40.7145239,-74.8559673,NJ1004300
116,116,NJ1922027,HIDDEN VILLAGE CONDO ASSOCIATION,"Sussex, Vernon Twp.",Hidden Village (John Perry),https://www9.state.nj.us/DEP_WaterWatch_public/JSP/Scheds.jsp?tinwsys=753&active1=A,3 CURTIS DR Vernon NJ 07462,41.1777121,-74.4818712,NJ1922027
117,117,NJ1924316,HIGH POINT REG HIGH SCHO,"Sussex, Wantage",High Point Regional High School,https://www9.state.nj.us/DEP_WaterWatch_public/JSP/Scheds.jsp?tinwsys=6975&active1=A,299 PIGEON HILL RD Wantage Twp NJ 07461,41.19984789999999,-74.6461236,NJ1924316
118,118,NJ1025328,HIGHLANDS FAMILY HEALTH CENTER,"Hunterdon, Union Twp.",Highlands Family Health Center (Hampton),https://www9.state.nj.us/DEP_WaterWatch_public/JSP/Scheds.jsp?tinwsys=4173&active1=A,61 FRONTAGE RD Union Twp NJ 08827,40.6415841,-74.9928315,NJ1025328
119,119,NJ1021351,HITRAN CORP,"Hunterdon, Raritan Twp",Hitran Corporation,https://www9.state.nj.us/DEP_WaterWatch_public/JSP/Scheds.jsp?tinwsys=3320&active1=A,362 RT 31 Flemington Junction NJ 08822,40.547338,-74.8542949,NJ1021351
120,120,NJ1019309,HOFFMANS CROSSING SCHOOL,"Hunterdon, Califon",Hoffman's Crossing (ESC School),https://www9.state.nj.us/DEP_WaterWatch_public/JSP/Scheds.jsp?tinwsys=4231&active1=A,37 HOFFMANS CROSSING RD Califon NJ 07830,40.6998054,-74.8663839,NJ1019309
121,121,NJ0228001,HO HO KUS WATER DEPT,"Bergen, Ho-Ho-Kus",Ho-Ho-Kus Borough *NEW PWS*,https://www9.state.nj.us/DEP_WaterWatch_public/JSP/Scheds.jsp?tinwsys=34&active1=A,23 HOLLYWOOD AVE Hohokus Boro NJ 07423,41.0024858,-74.1146823,NJ0228001
122,122,NJ1912001,HOPATCONG WATER DEPT,"Sussex, Hopatcong Boro",Hopatcong Borough (DeBlock samples/brings),https://www9.state.nj.us/DEP_WaterWatch_public/JSP/Scheds.jsp?tinwsys=696&active1=A,RIVER STYX RD Hopatcong NJ 07843,40.9418672,-74.6552961,NJ1912001
123,123,NJ1912329,HOPATCONG HEAD START,"Sussex, Hopatcong Boro",Hopatcong Head Start (McGowan),https://www9.state.nj.us/DEP_WaterWatch_public/JSP/Scheds.jsp?tinwsys=6881&active1=A,406 WILLS AVE Hopatcong NJ 07874,40.9150323,-74.6845262,NJ1912329
124,124,NJ1436300,HOPATCONG STATE PARK,"Morris, Roxbury",Hopatcong State Park *NEW*,https://www9.state.nj.us/DEP_WaterWatch_public/JSP/Scheds.jsp?tinwsys=6388&active1=A,LAKESIDE BLVD Landing NJ 07850,40.9138099,-74.6669592,NJ1436300
125,125,NJ1924376,HOPE EVANGELICAL FREE CHURCH,"Sussex, Wantage",Hope Church (call ahead to sch),https://www9.state.nj.us/DEP_WaterWatch_public/JSP/Scheds.jsp?tinwsys=9548&active1=A,1441 RT 565 Wantage NJ 07461,41.1946438,-74.6252779,NJ1924376
126,126,NJ1025314,HUNTERDON HILLS PLAYHOUSE,"Hunterdon, Union Twp.",Hunterdon Hills Playhouse,https://www9.state.nj.us/DEP_WaterWatch_public/JSP/Scheds.jsp?tinwsys=4100&active1=A,88 RT 173 WEST Hampton NJ 08827,40.6396676,-74.97685899999999,NJ1025314
127,127,NJ1021305,HUNTERDON MEDICAL CENTER,"Hunterdon, Raritan Twp",Hunterdon Medical Center,https://www9.state.nj.us/DEP_WaterWatch_public/JSP/Scheds.jsp?tinwsys=3158&active1=A,2100 WESTCOTT DR Flemington Junction NJ 08822,40.5306201,-74.8584345,NJ1021305
128,128,NJ1006339 ,HUNTERDON PREPARATORY SCHOOL,"Hunterdon, Clinton Twp",Hunterdon Preparatory School (McGowan),https://www9.state.nj.us/DEP_WaterWatch_public/JSP/Scheds.jsp?tinwsys=3690&active1=A,97 SPENCER LN Annandale NJ 08801,40.6472025,-74.8471162,NJ1006339
129,129,NJ2104337,IMPERIAL MACHINE & TOOL CO,"Warren, Blairstown Twp.",Imperial Machine & Tool Co (McGowan),https://www9.state.nj.us/DEP_WaterWatch_public/JSP/Scheds.jsp?tinwsys=8315&active1=A,8 WEST CRISMAN RD Blairstown NJ 07832,40.959904,-75.04080789999999,NJ2104337
130,130,NJ1414327,JEFFERSON DAIRY,"Morris, Jefferson Twp",Jefferson Dairy,https://www9.state.nj.us/DEP_WaterWatch_public/JSP/Scheds.jsp?tinwsys=4753&active1=A,741 RT 15 Lake Hopatcong NJ 07849,40.95942429999999,-74.59705869999999,NJ1414327
131,131,NJ1414302,JEFFERSON HOUSE,"Morris, Jefferson Twp","Jefferson House - *Seasonal""",https://www9.state.nj.us/DEP_WaterWatch_public/JSP/Scheds.jsp?tinwsys=4606&active1=A,139 NOLANS POINT RD Lake Hopatcong NJ 07849,40.9472092,-74.6293152,NJ1414302
132,132,NJ1414308,DRUMMOND SCHOOL,"Morris, Jefferson Twp",Jefferson Twp BOE Bldg (Drummond),https://www9.state.nj.us/DEP_WaterWatch_public/JSP/Scheds.jsp?tinwsys=4676&active1=A,31 RT 181 Lake Hopatcong NJ 07849,40.9762801,-74.6041282,NJ1414308
133,133,NJ1414402,COZY LAKE ELEMENTARY,"Morris, Jefferson Twp",Jefferson Twp Cozy Lake Elementary School,https://www9.state.nj.us/DEP_WaterWatch_public/JSP/Scheds.jsp?tinwsys=5001&active1=A,205 COZY LAKE RD Lake Hopatcong NJ 07849,41.0275713,-74.49268599999999,NJ1414402
134,134,NJ1414401,JEFFERSON TWP HIGH SCHOOL,"Morris, Jefferson Twp",Jefferson Twp High School,https://www9.state.nj.us/DEP_WaterWatch_public/JSP/Scheds.jsp?tinwsys=5000&active1=A,1010 WELDON RD Oak Ridge NJ 07438,41.016582,-74.55273609999999,NJ1414401
135,135,NJ1414419,JEFFERSON TWP MIDDLE SCHOOL,"Morris, Jefferson Twp",Jefferson Twp Middle School,https://www9.state.nj.us/DEP_WaterWatch_public/JSP/Scheds.jsp?tinwsys=5077&active1=A,1000 WELDON RD Lake Hopatcong NJ 07849,41.019004,-74.5484767,NJ1414419
136,136,NJ2106314,JENNY JUMP ST PARK-SITE,"Warren, Frelinghuysen Twp",Jenny Jump - East Rd #1 *SEASONAL*,https://www9.state.nj.us/DEP_WaterWatch_public/JSP/Scheds.jsp?tinwsys=8415&active1=A,STATE PARK RD Frelinghuysen Twp NJ 07844,40.924663,-74.923828,NJ2106314
137,137,NJ2106315,JENNY JUMP ST PARK-SITE,"Warren, Frelinghuysen Twp",Jenny Jump - East Rd #2 *SEASONAL*,https://www9.state.nj.us/DEP_WaterWatch_public/JSP/Scheds.jsp?tinwsys=8416&active1=A,STATE PARK RD Frelinghuysen Twp NJ 07844,40.924663,-74.923828,NJ2106315
138,138,NJ2106300 ,JENNY JUMP STATE FOREST,"Warren, Frelinghuysen Twp",Jenny Jump - Office,https://www9.state.nj.us/DEP_WaterWatch_public/JSP/Scheds.jsp?tinwsys=8383&active1=A,STATE PARK RD Frelinghuysen Twp NJ 07844,40.924663,-74.923828,NJ2106300
139,139,NJ1806305,DUKE ISLAND PARK,"Somerset, Bridgewater Twp",JM Sorge - Duke Island Park - Boat House,https://www9.state.nj.us/DEP_WaterWatch_public/JSP/Scheds.jsp?tinwsys=7244&active1=A,OLD YORK RD Bridgewater Twp NJ 08807,40.5565205,-74.6611731,NJ1806305
140,140,NJ1805394,NESHANIC VALLEY GOLF COURSE,"Somerset, Branchburg Twp",JM Sorge - Neshanic Valley Golf Club House,https://www9.state.nj.us/DEP_WaterWatch_public/JSP/Scheds.jsp?tinwsys=8661&active1=A,2301 S BRANCH RD Neshanic Station NJ 08853,40.5265601,-74.7200356,NJ1805394
141,141,NJ1805401,NESHANIC VALLEY MAINTENANCE,"Somerset, Branchburg Twp",JM Sorge - Neshanic Valley Maintenance Bldg (SEASONAL),https://www9.state.nj.us/DEP_WaterWatch_public/JSP/Scheds.jsp?tinwsys=9254&active1=A,1023 OPIE RD Neshanic Station NJ 08853,40.5234008,-74.7075559,NJ1805401
142,142,NJ1805396,NESHANIC VALLLEY GOLF COURSE-PERF ACADEM,"Somerset, Branchburg Twp",JM Sorge - Neshanic Valley Performance Center,https://www9.state.nj.us/DEP_WaterWatch_public/JSP/Scheds.jsp?tinwsys=8718&active1=A,2301 SOUTH BRANCE RD Branchburg Twp NJ 08876,40.528554,-74.719396,NJ1805396
143,143,NJ1806354,ROLLER HOCKEY RINK NORTH BRANCH GREENWAY,"Somerset, Bridgewater Twp",JM Sorge - North Branch Greenway Park - Skating Rink (SEASONAL),https://www9.state.nj.us/DEP_WaterWatch_public/JSP/Scheds.jsp?tinwsys=7462&active1=A,MILLTOWN RD Bridgewater NJ 08807,40.5767529,-74.6751938,NJ1806354
144,144,NJ1820300,WARREN BROOK PARK GC,"Somerset, Warren Twp",JM Sorge - Warren Brook Golf Club (SEASONAL),https://www9.state.nj.us/DEP_WaterWatch_public/JSP/Scheds.jsp?tinwsys=7950&active1=A,500 WARRENVILLE RD Warren Twp NJ 07059,40.6131909,-74.4921033,NJ1820300
145,145,NJ1907315,KAREN ANN QUINLAN HOSPICE,"Sussex, Fredon Twp.",Karen Ann Quinlann Hospice,https://www9.state.nj.us/DEP_WaterWatch_public/JSP/Scheds.jsp?tinwsys=9340&active1=A,28 FAIRVEIW HILL RD Fredon Twp NJ 07860,41.0160391,-74.85899619999999,NJ1907315
146,146,NJ1421341,KE KON REALTY CO INC,"Morris, Montville Twp",Ke Kon Realty Co,https://www9.state.nj.us/DEP_WaterWatch_public/JSP/Scheds.jsp?tinwsys=5323&active1=A,65 RT 46 Pine Brook NJ 07058,40.858266,-74.32575,NJ1421341
147,147,NJ1016300,KINGWOOD TOWNSHIP SCHOOL,"Hunterdon, Kingwood Twp",Kingwood Twp School (MARLBORO),https://www9.state.nj.us/DEP_WaterWatch_public/JSP/Scheds.jsp?tinwsys=4077&active1=A,880 ROUTE 519 Kingwood Twp NJ 08825,40.5062966,-75.01136989999999,NJ1016300
148,148,NJ1415300 ,KINNELON PROF BLDG,"Morris, Kinnelon Boro",Kinnelon Professional Building (McGowan),https://www9.state.nj.us/DEP_WaterWatch_public/JSP/Scheds.jsp?tinwsys=5078&active1=A,170 KINNELON RD Kinnelon NJ 07405,40.9900179,-74.384863,NJ1415300
149,149,NJ1902356,KITTATINNY VALLEY SP FISHRMN TOILET WELL,"Sussex, Andover",Kittatinny Valley State Park - Fisherman's Restroom,https://www9.state.nj.us/DEP_WaterWatch_public/JSP/Scheds.jsp?tinwsys=6947&active1=A,2 AIRPORT RD Newton Town NJ 07848,41.1009158,-74.69858909999999,NJ1902356
150,150,NJ1902355,KITTATINNY VALLEY SP OFFICE WELL,"Sussex, Andover",Kittatinny Valley State Park - Office,https://www9.state.nj.us/DEP_WaterWatch_public/JSP/Scheds.jsp?tinwsys=6946&active1=A,2 AIRPORT RD TEST Newton NJ 07821,40.9531467,-74.7893874,NJ1902355
151,151,NJ1913301,LAFAYETTE FIREHOUSE,"Sussex, Lafayette Twp.",Lafayette Firehouse,https://www9.state.nj.us/DEP_WaterWatch_public/JSP/Scheds.jsp?tinwsys=6956&active1=A,126 RT 15 Lafayette NJ 07848,41.10111690000001,-74.6924152,NJ1913301
152,152,NJ1913320,LAFAYETTE MUNICIPAL BUILDING,"Sussex, Sandyston Twp",Lafayette Twp Municipal Bldg,https://www9.state.nj.us/DEP_WaterWatch_public/JSP/Scheds.jsp?tinwsys=8644&active1=A,33 MORRIS FARM RD Lafayette NJ 07848,41.0937223,-74.6923238,NJ1913320
153,153,NJ1217301,LAKE NELSON SCHOOL,"Middlesex, Piscataway Twp",Lake Nelson School (MARLBORO),https://www9.state.nj.us/DEP_WaterWatch_public/JSP/Scheds.jsp?tinwsys=5440&active1=A,555 S RANDOLPHVILLE RD Piscataway Twp NJ 08854,40.5415175,-74.4559058,NJ1217301
154,154,	NJ1413001,LAKESHORE COMPANY,"Morris, Harding Twp",Lakeshore,https://www9.state.nj.us/DEP_WaterWatch_public/JSP/Scheds.jsp?tinwsys=409&active1=A,MT KEMBLE AVE Harding Twp NJ 07940,40.7631704,-74.5155899,NJ1413001
155,155,NJ2123300,BELVIDERE SHOPPING PLAZA,"Warren, Belvidere",Lane Group - Belvidere Shopping Center (McGowan),https://www9.state.nj.us/DEP_WaterWatch_public/JSP/Scheds.jsp?tinwsys=8505&active1=A,525-551 RT 46 Belvidere NJ 07823,40.8427595,-75.05449159999999,NJ2123300
156,156,NJ2104305,BLAIRSTOWN COMMONS,"Warren, Blairstown Twp.",Lane Group - Blairstown Commons (McGowan),https://www9.state.nj.us/DEP_WaterWatch_public/JSP/Scheds.jsp?tinwsys=8265&active1=A,128 RT 94 Blairstown NJ 07825,40.9872863,-74.9828852,NJ2104305
157,157,NJ1922355,LEARN AND PLAY ACADEMY,"Sussex, Vernon Twp",Learn & Play Inc. (McGowan),https://www9.state.nj.us/DEP_WaterWatch_public/JSP/Scheds.jsp?tinwsys=7907&active1=A,802 CANISTEAR RD Highland Lakes NJ 07422,41.17946,-74.4554249,NJ1922355
158,158,NJ1001300,LESTER D WILSON SCHOOL,"Hunterdon, Alexandria Twp",Lester D Wilson School (MARLBORO),https://www9.state.nj.us/DEP_WaterWatch_public/JSP/Scheds.jsp?tinwsys=3304&active1=A,525 RT 513 Alexandria Twp NJ 08867,40.56752789999999,-75.0233263,NJ1001300
159,159,NJ0320310 ,LEXINGTON BUILDNG,"Burlington, Medford Twp",Lexington Building (MARLBORO - McGowan),https://www9.state.nj.us/DEP_WaterWatch_public/JSP/Scheds.jsp?tinwsys=1784&active1=A,180 TUCKERTON RD Medford NJ 08055,39.8719571,-74.8485239,NJ0320310
160,160,NJ1438324,LIFE GIVING FOUNTAIN ROMANIAN CHURCH,"Morris, Washington Twp",Life Giving Fountain Romania Church,https://www9.state.nj.us/DEP_WaterWatch_public/JSP/Scheds.jsp?tinwsys=6718&active1=A,132 CALIFON RD Long Valley NJ 07853,40.7783064,-74.8507588,NJ1438324
161,161,NJ1019311,LITTLE BROOK NURSING HOM,"Hunterdon, Lebanon Twp",Little Brook Nursing Home,https://www9.state.nj.us/DEP_WaterWatch_public/JSP/Scheds.jsp?tinwsys=4233&active1=A,78 SLIKER RD Lebanon Twp NJ 07830,40.7448276,-74.86254629999999,NJ1019311
162,162,NJ1414326,LITTLE NICKS,"Morris, Jefferson Twp",Little Nickis - closed M & T - open after 11.30,https://www9.state.nj.us/DEP_WaterWatch_public/JSP/Scheds.jsp?tinwsys=4694&active1=A,120 BRADY RD Lake Hopatcong NJ 07849,40.9632314,-74.6224527,NJ1414326
163,163,NJ0710001,LIVINGSTON TWP DIV OF WATER,"Essex, Livingston Twp.",Livingston,https://www9.state.nj.us/DEP_WaterWatch_public/JSP/Scheds.jsp?tinwsys=123&active1=A,357 SOUTH LIVINGSTON AVE Livingston Twp NJ 07039,40.7824002,-74.314617,NJ0710001
164,164,NJ1438323,LONG VALLEY PRESBYTERIAN,"Morris, Washington Twp",Long Valley Presbyterian Church,https://www9.state.nj.us/DEP_WaterWatch_public/JSP/Scheds.jsp?tinwsys=6717&active1=A,39 BARTLEY RD Long Valley NJ 07853,40.7888071,-74.75505749999999,NJ1438323
165,165,NJ1910340,LOWES RETAIL STORE #1976,"Sussex, Hampton Twp",Lowes#1976 (McGowan),https://www9.state.nj.us/DEP_WaterWatch_public/JSP/Scheds.jsp?tinwsys=8784&active1=A,39 HAMPTON HOUSE ROAD Hampton Twp NJ 07860,41.0764082,-74.7402906,NJ1910340
166,166,NJ1414006,LOZIERS TRAILER PARK,"Morris, Jefferson Twp",Loziers Trailer Park (Richard Kimble),https://www9.state.nj.us/DEP_WaterWatch_public/JSP/Scheds.jsp?tinwsys=323&active1=A,RIDGE RD Jefferson Twp NJ 07438,41.0398177,-74.5275438,NJ1414006
167,167,NJ1022382,MAGNOLIA MONTESSORI,"Hunterdon, Readington Twp",Magnolia Montessori,https://www9.state.nj.us/DEP_WaterWatch_public/JSP/Scheds.jsp?tinwsys=8933&active1=A,2 LAKE DRIVE Whitehouse Station NJ 08889,40.6244504,-74.77048580000002,NJ1022382
168,168,NJ1910316,NEWTON KIA,"Sussex, Hampton Twp.",Major Kia,https://www9.state.nj.us/DEP_WaterWatch_public/JSP/Scheds.jsp?tinwsys=7726&active1=A,20 RT 206 Hampton Twp NJ 07860,41.0698766,-74.74198559999999,NJ1910316
169,169,NJ1902361,MANOR PLAZA CONDO ASSOCIATION COMPLEX,"Sussex, Andover Boro",Manor Plaza Condominium Association,https://www9.state.nj.us/DEP_WaterWatch_public/JSP/Scheds.jsp?tinwsys=8935&active1=A,61/63/65 NEWTON SPARTA RD Andover Twp NJ 07860,41.0430396,-74.7328381,NJ1902361
170,170,NJ1421352,1 MARS COURT,"Morris, Montville Twp",Mars Court 1 (McGowan) Call Tom Paranzine to schedule - 908-363-5697,https://www9.state.nj.us/DEP_WaterWatch_public/JSP/Scheds.jsp?tinwsys=9527&active1=A,1 MARS CT Montville Twp NJ 07045,40.946483,-74.38742859999999,NJ1421352
171,171,NJ1421353,3 MARS COURT,"Morris, Montville Twp",Mars Court 3 (McGowan) Call Tom Paranzine to schedule - 908-363-5697,https://www9.state.nj.us/DEP_WaterWatch_public/JSP/Scheds.jsp?tinwsys=9528&active1=A,3 MARS CT Montville NJ 07045,40.9459195,-74.3866956,NJ1421353
172,172,NJ1106398 ,,"Mercer, Hopewell Twp",MBHK Properties Offices (Pennington Point West) (MARLBORO),https://www9.state.nj.us/DEP_WaterWatch_public/JSP/Scheds.jsp?tinwsys=8823&active1=A,,,,Duplicate row
173,173,NJ1910344,MCGUIRE CHEVROLET,"Sussex, Hampton Twp",McGuire Chevrolet (McGowan),https://www9.state.nj.us/DEP_WaterWatch_public/JSP/Scheds.jsp?tinwsys=9302&active1=A,63 HAMPTON HOUSE RD Hampton Twp NJ 07860,41.0841635,-74.7356272,NJ1910344
174,174,NJ0307302,MEADOWVIEW JUNIOR ACADEMY,"Burlington, Chesterfield Twp",Meadowview Junior Academy (MARLBORO),https://www9.state.nj.us/DEP_WaterWatch_public/JSP/Scheds.jsp?tinwsys=1522&active1=A,241 BORDENTOWN CHESTERFIELD RD Chesterfield NJ 08620,40.1258707,-74.65244009999999,NJ0307302
175,175,NJ1436338 ,FREHAM INVESTMENT CORPORATION,"Morris, Roxbury",Meier Freham Investment #2 (McGowan),https://www9.state.nj.us/DEP_WaterWatch_public/JSP/Scheds.jsp?tinwsys=6486&active1=A,2 GOLD MINE RD Roxbury Twp NJ 07836,40.8815829,-74.6960738,NJ1436338
176,176,NJ1436332 ,MEIER INDUSTRIAL PARK INC,"Morris, Roxbury",Meier Industrial Park #3 (McGowan),https://www9.state.nj.us/DEP_WaterWatch_public/JSP/Scheds.jsp?tinwsys=6480&active1=A,4 GOLD MINE RD Roxbury Twp NJ 07836,40.881335,-74.69794879999999,NJ1436332
177,177,NJ1436371,MEIER STONE COMPANY INC,"Morris, Roxbury",Meier Stone Company #1 (McGowan),https://www9.state.nj.us/DEP_WaterWatch_public/JSP/Scheds.jsp?tinwsys=6635&active1=A,2 GOLD MINE RD Roxbury Twp NJ 07852,40.8815829,-74.6960738,NJ1436371
178,178,NJ1406326,1 MILL RIDGE LANE,"Morris, Chester Boro",Mill Ridge 1 (McGowan),https://www9.state.nj.us/DEP_WaterWatch_public/JSP/Scheds.jsp?tinwsys=8986&active1=A,6 MILL RDG LN Chester NJ 07930,40.7839798,-74.703848,NJ1406326
179,179,NJ1406327,6 MILL RIDGE LANE,"Morris, Chester Boro",Mill Ridge 6 (McGowan),https://www9.state.nj.us/DEP_WaterWatch_public/JSP/Scheds.jsp?tinwsys=8987&active1=A,6 MILL RIDGE LANE Chester NJ 07930,40.7839798,-74.703848,NJ1406327
180,180,NJ1332351,MILLSTONE CENTER,"Monmouth, Millstone Twp",Millstone Center (MARLBORO),https://www9.state.nj.us/DEP_WaterWatch_public/JSP/Scheds.jsp?tinwsys=4911&active1=A,408 RT 33 Millstone Twp NJ 07726,40.2582259,-74.394177,NJ1332351
181,181,NJ1212001,MILLTOWN W DEPT,"Middlesex, Milltown",Milltown (MARLBORO) - Add info,https://www9.state.nj.us/DEP_WaterWatch_public/JSP/Scheds.jsp?tinwsys=299&active1=A,ELKINS LANE PUMPING STATION North Brunswick NJ 08902,40.4628049,-74.4456103,NJ1212001
182,182,NJ1022370,MINALEX CORP,"Hunterdon, Readington Twp",Minalex Corporation / LFR,https://www9.state.nj.us/DEP_WaterWatch_public/JSP/Scheds.jsp?tinwsys=3939&active1=A,25 CODDINGTON RD Whitehouse Station NJ 08889,40.6076713,-74.7422109,NJ1022370
183,183,NJ1420001,MINE HILL TWP WATER DEPT,"Morris, Mine Hill",Mine Hill (Mike Hyrnio 973-876-6022),https://www9.state.nj.us/DEP_WaterWatch_public/JSP/Scheds.jsp?tinwsys=532&active1=A,10 BAKER ST Mine Hill Twp NJ 07801,40.8788964,-74.5993237,NJ1420001
184,184,NJ1914323,MONTAGUE TOWN HALL,"Sussex, Montague Twp",Montague Town Hall,https://www9.state.nj.us/DEP_WaterWatch_public/JSP/Scheds.jsp?tinwsys=7117&active1=A,277 CLOVE RD Montague NJ 07827,41.3119144,-74.7644518,NJ1914323
185,185,NJ1914002,MONTAGUE WATER CO.,"Sussex, Montague",Montague Water Co.,https://www9.state.nj.us/DEP_WaterWatch_public/JSP/Scheds.jsp?tinwsys=705&active1=A,CLOVE RD AKA RT 653 Montague Twp NJ 07827,41.3158872,-74.7373428,NJ1914002
186,186,NJ0713001,MONTCLAIR WATER BUREAU,"Essex, Montclair Town",Montclair Water Bureau (call Steve Koyce ahead (201) 704-1093),https://www9.state.nj.us/DEP_WaterWatch_public/JSP/Scheds.jsp?tinwsys=125&active1=A,54 WATCHUNG AVE Montclair NJ 07043,40.8329896,-74.210832,NJ0713001
187,187,NJ1920313,MOUNTAIN SHADOWS LAKE I,"Sussex, Stillwater Twp",Mountain Shadow Lake *SEASONAL Pool and TC*,https://www9.state.nj.us/DEP_WaterWatch_public/JSP/Scheds.jsp?tinwsys=7592&active1=A,946 OWASSA RD Stillwater Twp NJ 07860,41.100989,-74.884546,NJ1920313
188,188,NJ1025326,MOUNTAIN VIEW 78,"Hunterdon, Union Twp.",Mountain View 78 (McGowan),https://www9.state.nj.us/DEP_WaterWatch_public/JSP/Scheds.jsp?tinwsys=4171&active1=A,171 RT 173 Asbury NJ 08802,40.6458447,-75.0021038,NJ1025326
189,189,NJ1432326,MR CRABBYS,"Morris, Randolph",Mr. Crabby's,https://www9.state.nj.us/DEP_WaterWatch_public/JSP/Scheds.jsp?tinwsys=6060&active1=A,399 RT 10 EAST Randolph Twp NJ 07869,40.8637602,-74.5588235,NJ1432326
190,190,NJ1426002,MOUNT ARLINGTON DPW KADEL SYS,"Morris, Mt Arlington Boro",Mt. Arlington - DPW Kadel System,https://www9.state.nj.us/DEP_WaterWatch_public/JSP/Scheds.jsp?tinwsys=543&active1=A,419 HOWARD BLVD Mount Arlington NJ 07879,40.9309347,-74.6316713,NJ1426002
191,191,NJ1426005,MOUNT ARLINGTON BORO DPW MAIN,"Morris, Mt Arlington Boro",Mt. Arlington - DPW Main,https://www9.state.nj.us/DEP_WaterWatch_public/JSP/Scheds.jsp?tinwsys=546&active1=A,419 HOWARD BLVD Mount Arlington NJ 07879,40.9309347,-74.6316713,NJ1426005
192,192,NJ1427395,MOUNT OLIVE SHOPPING PARKADE,"Morris, Mount Olive",Mt. Olive Shopping Parkade *NEW 1/1/22*,https://www9.state.nj.us/DEP_WaterWatch_public/JSP/Scheds.jsp?tinwsys=4548&active1=A,305 W PLANE ST Hackettstown NJ 07840,40.8497099,-74.82930619999999,NJ1427395
193,193,NJ1413318,NEW VILLAGE DELI,"Morris, Harding Twp",New Village Deli (Contact Isabel to schedule),https://www9.state.nj.us/DEP_WaterWatch_public/JSP/Scheds.jsp?tinwsys=4599&active1=A,19 VILLAGE RD New Vernon NJ 07976,40.7442158,-74.4941178,NJ1413318
194,194,NJ1907304,NICKY T'S,"Sussex, Fredon Twp.",Nicky T's - (now Carlos Pizza),https://www9.state.nj.us/DEP_WaterWatch_public/JSP/Scheds.jsp?tinwsys=7498&active1=A,397 RT 94 Fredon Twp NJ 07860,41.04282440000001,-74.7996015,NJ1907304
195,195,NJ0220311,NJ AUDUBON SOCIETY,"Bergen, Franklin Lakes Boro",NJ Audubon Society,https://www9.state.nj.us/DEP_WaterWatch_public/JSP/Scheds.jsp?tinwsys=9207&active1=A,790 EWING AVE Franklin Lakes NJ 07417,40.99303949999999,-74.19974979999999,NJ0220311
196,196,NJ1021435,NEW JERSEY MOTOR VEHICLE COMMISSION,"Hunterdon, Raritan Twp",NJ Motor Vehicle - Flemington (McGowan),https://www9.state.nj.us/DEP_WaterWatch_public/JSP/Scheds.jsp?tinwsys=9100&active1=A,181 RT 202 & 31 Flemington NJ 08822,40.4801935,-74.86471920000001,NJ1021435
197,197,NJ0333329,SOUTHAMPTON VEHICLE INSPECTION STATION,"Burlington, Southampton",NJ Motor Vehicle - Southampton (MARLBORO),https://www9.state.nj.us/DEP_WaterWatch_public/JSP/Scheds.jsp?tinwsys=9078&active1=A,1875 RT 38 Vincentown NJ 08088,39.9748709,-74.7475142,NJ0333329
198,198,NJ0436499,NEW JERSEY MOTOR VEHICLE INSPECTION STAT,"Camden, Winslow Twp",NJ Motor Vehicle - Winslow (MARLBORO),https://www9.state.nj.us/DEP_WaterWatch_public/JSP/Scheds.jsp?tinwsys=9016&active1=A,550 SPRING GDN RD Ancora NJ 08087,39.6904633,-74.846007,NJ0436499
199,199,NJ0715002,NORTH CALDWELL - HILLTOP,"Essex, North Caldwell",North Caldwell - Hilltop,https://www9.state.nj.us/DEP_WaterWatch_public/JSP/Scheds.jsp?tinwsys=9001&active1=A,141 GOULD AVE North Caldwell Boro NJ 07006,40.8612275,-74.261628,NJ0715002
200,200,NJ0715001,NORTH CALDWELL WATER DEP,"Essex, North Caldwell",North Caldwell - Main,https://www9.state.nj.us/DEP_WaterWatch_public/JSP/Scheds.jsp?tinwsys=128&active1=A,159 GOULD AVE North Caldwell NJ 07006,40.8620458,-74.262588,NJ0715001
201,201,NJ1904004,NORTH SHORE WATER ASSOCIATION,"Sussex, Byram Twp",North Shore,https://www9.state.nj.us/DEP_WaterWatch_public/JSP/Scheds.jsp?tinwsys=650&active1=A,20 ALLAMUCHY TRL Byram Twp NJ 07821,40.952725,-74.7502344,NJ1904004
202,202,NJ1910328,NORTHWEST CHRISTIAN SCHO,"Sussex, Hampton Twp",Northwest Christian School (McGowan),https://www9.state.nj.us/DEP_WaterWatch_public/JSP/Scheds.jsp?tinwsys=7797&active1=A,92 RT 519 Hampton Twp NJ 07860,41.1087588,-74.8011315,NJ1910328
203,203,NJ1414008,OAK RIDGE MOBILE HOME PARK,"Morris, Jefferson Twp",Oak Ridge Mobile Home Park (McGowan),https://www9.state.nj.us/DEP_WaterWatch_public/JSP/Scheds.jsp?tinwsys=325&active1=A,80 A MILTON RD Oak Ridge NJ 07438,41.0278053,-74.521667,NJ1414008
204,204,NJ1615334,OAKRIDGE PRESBYTERIAN CHURCH/MY SCH DAY,"Passaic, West Milford Twp",Oak Ridge Presbyterian Church,https://www9.state.nj.us/DEP_WaterWatch_public/JSP/Scheds.jsp?tinwsys=5749&active1=A,321 OAK RIDGE RD West Milford NJ 07438,41.0477972,-74.48383869999999,NJ1615334
205,205,NJ1106375 ,OFFICES AT PENNINGTON POINT,"Mercer, Hopewell Twp",Offices At Pennington Point (MARLBORO),https://www9.state.nj.us/DEP_WaterWatch_public/JSP/Scheds.jsp?tinwsys=4702&active1=A,23 RT 31 Pennington NJ 08534,40.3372947,-74.7965622,NJ1106375
206,206,NJ1916001,OGDENSBURG W DEPT,"Sussex, Ogdensburg Boro",Ogdensburg (client drops off @ Agra),https://www9.state.nj.us/DEP_WaterWatch_public/JSP/Scheds.jsp?tinwsys=708&active1=A,249 MUNSONHURST ROAD Franklin NJ 07416,41.0870928,-74.58667129999999,NJ1916001
207,207,NJ0320347,,"Burlington, Medford Twp",Olde Town SQ Condo Assoc (MARLBORO),https://www9.state.nj.us/DEP_WaterWatch_public/JSP/Scheds.jsp?tinwsys=1684&active1=A,,,,
208,208,NJ1415305,OUR LADY OF THE MAGNIFIC,"Morris, Kinnelon Boro",OLM (Our Lady of The Magnificat),https://www9.state.nj.us/DEP_WaterWatch_public/JSP/Scheds.jsp?tinwsys=5083&active1=A,2 MILLER RD Kinnelon NJ 07405,40.9749099,-74.3813811,NJ1415305
209,209,NJ1438310,OUR LADY OF THE MOUNTAIN,"Morris, Washington Twp",Our Lady of the Mountain (rectory & church),https://www9.state.nj.us/DEP_WaterWatch_public/JSP/Scheds.jsp?tinwsys=6704&active1=A,2 EAST SPRINGTOWN RD Long Valley NJ 07853,40.7952901,-74.7974763,NJ1438310
210,210,NJ1615355,OUR LADY QUEEN OF PEACE/,"Passaic, West Milford Twp",Our Lady Queen of Peace (Church),https://www9.state.nj.us/DEP_WaterWatch_public/JSP/Scheds.jsp?tinwsys=5829&active1=A,1911 UNION VALLEY RD Hewitt NJ 07421,41.15481399999999,-74.3542111,NJ1615355
211,211,NJ1615323,OUR LADY QUEEN OF PEACE SCHOOL,"Passaic, West Milford Twp",Our Lady Queen of Peace (School) ,https://www9.state.nj.us/DEP_WaterWatch_public/JSP/Scheds.jsp?tinwsys=5738&active1=A,1905 UNION VALLEY RD Hewitt NJ 07421,41.1552806,-74.3545318,NJ1615323
212,212,NJ1818320,OUR LITTLE SCHOOLHOUSE,"Somerset, Franklin Twp",Our Little Schoolhouse (MARLBORO),https://www9.state.nj.us/DEP_WaterWatch_public/JSP/Scheds.jsp?tinwsys=7948&active1=A,316 ELIZABETH AVE Franklin Twp NJ 08873,40.5484131,-74.53325989999999,NJ1818320
213,213,NJ1026308,OXFORD COMMUNICATION,"Hunterdon, West Amwell Twp.",Oxford Communications (MARLBORO),https://www9.state.nj.us/DEP_WaterWatch_public/JSP/Scheds.jsp?tinwsys=4183&active1=A,11 MUSIC MOUNTAIN BLVD Lambertville NJ 08530,40.3785763,-74.9348059,NJ1026308
214,214,NJ1922406,PAESANO PIZZA,"Sussex, Vernon Twp",Paesano Pizza *NEW*,https://www9.state.nj.us/DEP_WaterWatch_public/JSP/Scheds.jsp?tinwsys=9283&active1=A,316 RT 94 Vernon NJ 07462,41.1986919,-74.482259,NJ1922406
215,215,NJ1438349,PALMER PARK WATER SYSTEM,"Morris, Washington Twp",Palmer Park *SEASONAL*,https://www9.state.nj.us/DEP_WaterWatch_public/JSP/Scheds.jsp?tinwsys=9495&active1=A,209 BARTLEY RD Long Valley NJ 07853,40.80225,-74.735889,NJ1438349
216,216,NJ1429001,PARSIPPANY-TROY HILLS WATER DEPARTMENT,"Morris, Parsippany Troy-Hills",Parsippany Water Dept. ,https://www9.state.nj.us/DEP_WaterWatch_public/JSP/Scheds.jsp?tinwsys=565&active1=A,1001 PARSIPPANY BLVD Parsippany NJ 07054,40.8716365,-74.4206399,NJ1429001
217,217,NJ1436369,CASELLA'S DELI,"Morris, Roxbury",Paxos Realty - Casella's Deli/Roxbury Pizza,https://www9.state.nj.us/DEP_WaterWatch_public/JSP/Scheds.jsp?tinwsys=6633&active1=A,139 RT 10 EAST Succasunna NJ 07876,40.8661903,-74.6382362,NJ1436369
218,218,NJ1436380,PAXOS REALITY 538 LLC,"Morris, Roxbury",Paxos Realty - Ocean Nails,https://www9.state.nj.us/DEP_WaterWatch_public/JSP/Scheds.jsp?tinwsys=9029&active1=A,538 RT 10 W Ledgewood NJ 07852,40.877683,-74.65024439999999,NJ1436380
219,219,NJ1106405,PENNINGTON BP GAS STATION #94706,"Mercer, Hopewell Twp",Pennington BP (MARLBORO),https://www9.state.nj.us/DEP_WaterWatch_public/JSP/Scheds.jsp?tinwsys=9297&active1=A,266 RT 31 SOUTH Hopewell NJ 08534,40.3813851,-74.8138062,NJ1106405
220,220,NJ1106390,PENNINGTON MONTESSORI SCHOOL,"Mercer, Hopewell Twp",Pennington Montessori School (MARLBORO),https://www9.state.nj.us/DEP_WaterWatch_public/JSP/Scheds.jsp?tinwsys=4777&active1=A,4 TREE FARM RD Hopewell Twp NJ 08534,40.3361939,-74.7993959,NJ1106390
221,221,NJ1106398,,"Mercer, Hopewell Twp",Pennington Point West (MARLBORO),https://www9.state.nj.us/DEP_WaterWatch_public/JSP/Scheds.jsp?tinwsys=8823&active1=A,,,,
222,222,NJ1025306 ,THE PERRYVILLE INN,"Hunterdon, Union Twp.",Perryville Inn (Oink & Moo) (Marlboro),https://www9.state.nj.us/DEP_WaterWatch_public/JSP/Scheds.jsp?tinwsys=4092&active1=A,167 PERRYVILLE RD Union Twp NJ 08827,40.6332181,-74.9700563,NJ1025306
223,223,NJ1216001,PERTH AMBOY WATER DEPARTMENT,"Middlesex, Perth Amboy City",Perth Amboy (MARLBORO),https://www9.state.nj.us/DEP_WaterWatch_public/JSP/Scheds.jsp?tinwsys=305&active1=A,OLD WATER WORKS RD East Brunswick Twp NJ 08861,40.4282948,-74.3366612,NJ1216001
224,224,NJ1602309,PETRO MARKA,"Passaic, Clifton",Petro Marka (McGowan),https://www9.state.nj.us/DEP_WaterWatch_public/JSP/Scheds.jsp?tinwsys=6608&active1=A,299 RT 3 Clifton NJ 07011,40.8303967,-74.1395047,NJ1602309
225,225,NJ1017301,PHILLIPS BARBER HEALTH CENTER,"Hunterdon, Lambertville",Philips-Barber Family Health Center,https://www9.state.nj.us/DEP_WaterWatch_public/JSP/Scheds.jsp?tinwsys=4159&active1=A,72 ALEXANDER AVE Lambertville NJ 08530,40.37587250000001,-74.942021,NJ1017301
226,226,NJ0811316,PIRAMAL GLASS USA LLC,"Gloucester, Monroe Twp",Piramal Glass (MARLBORO),https://www9.state.nj.us/DEP_WaterWatch_public/JSP/Scheds.jsp?tinwsys=3425&active1=A,918 E MALAGA RD Williamstown NJ 08094,39.6808312,-74.9495554,NJ0811316
227,227,NJ1922319,THE TRACKS DELI,"Sussex, Vernon Twp",Place By Tracks ,https://www9.state.nj.us/DEP_WaterWatch_public/JSP/Scheds.jsp?tinwsys=7812&active1=A,65 VERNON CROSSING RD Vernon NJ 07462,41.206714,-74.4823048,NJ1922319
228,228,NJ1523326,PLUMSTED RETAIL CENTER C/O JESSE BELL,"Ocean, Plumstead Twp",Plumstead Retail Center (MARLBORO),https://www9.state.nj.us/DEP_WaterWatch_public/JSP/Scheds.jsp?tinwsys=9019&active1=A,400 RT 539 New Egypt NJ 08514,40.1032582,-74.50642309999999,NJ1523326
229,229,NJ1906001,HILLSIDE ESTATES AT FRANKLIN,"Sussex, Franklin Boro",Pospeich (WSM) Hillside Estates - Steve P schedules,https://www9.state.nj.us/DEP_WaterWatch_public/JSP/Scheds.jsp?tinwsys=659&active1=A,SKYVIEW DR Franklin NJ 07416,41.095759,-74.5779887,NJ1906001
230,230,NJ1911002,LAKE STOCKHOLM INC,"Sussex, Hardyston Twp",Pospeich (WSM) Lake Stockholm - Steve P schedules,https://www9.state.nj.us/DEP_WaterWatch_public/JSP/Scheds.jsp?tinwsys=691&active1=A,HOLLAND MOUNTAIN RD Hardyston Twp NJ 07460,41.072996,-74.5218014,NJ1911002
231,231,NJ1107315,PRINCETON CHILD DEVELOPMNT INS,"Mercer, Lawrence Twp",Princeton Child Development INS (MARLBORO),https://www9.state.nj.us/DEP_WaterWatch_public/JSP/Scheds.jsp?tinwsys=4856&active1=A,300 COLD SOIL RD Lawrence Twp NJ 08540,40.3306651,-74.7284602,NJ1107315
232,232,NJ0436484,PRO BUILD OFFICE,"Camden, Winslow Twp",Pro Build Office (MARLBORO),https://www9.state.nj.us/DEP_WaterWatch_public/JSP/Scheds.jsp?tinwsys=2473&active1=A,210 WILLIAMSTOWN RD Berlin NJ 08009,39.7509804,-74.9332888,NJ0436484
233,233,NJ0436353,PRO BUILD SHOP,"Camden, Winslow Twp",Pro Build Shop (MARLBORO),https://www9.state.nj.us/DEP_WaterWatch_public/JSP/Scheds.jsp?tinwsys=2244&active1=A,210 WILLIAMSTOWN RD Winslow NJ 08009,39.7509804,-74.9332888,NJ0436353
234,234,NJ1924333,QUICK STOP DELI,"Sussex, Wantage",Quick Stop Deli,https://www9.state.nj.us/DEP_WaterWatch_public/JSP/Scheds.jsp?tinwsys=7049&active1=A,232 RT 23 NORTH Wantage Twp NJ 07419,41.1884754,-74.58665069999999,NJ1924333
235,235,NJ1905350 ,RAINBOWS OF LEARNING INC,"Sussex, Frankford Twp",Rainbows of Learning - McGowan,https://www9.state.nj.us/DEP_WaterWatch_public/JSP/Scheds.jsp?tinwsys=8912&active1=A,118 RT 206 NORTH Frankford Twp NJ 07822,41.1279983,-74.7228705,NJ1905350
236,236,NJ0248001,RAMSEY WATER DEPT,"Bergen, Ramsey Boro",Ramsey (client drops off @ Agra),https://www9.state.nj.us/DEP_WaterWatch_public/JSP/Scheds.jsp?tinwsys=68&active1=A,WEST SIDE PLAZE DPW YARD Ramsey NJ 07446,41.062513,-74.1357407,NJ0248001
237,237,NJ0113302,R E A D PRESCHOOL,"Atlantic, Hammonton Town",READ Preschool/Camp (MARLBORO),https://www9.state.nj.us/DEP_WaterWatch_public/JSP/Scheds.jsp?tinwsys=1322&active1=A,400 SOUTH CHEW RD Hammonton NJ 08037,39.616112,-74.809544,NJ0113302
238,238,NJ1022374,HOLLAND BROOK SCHOOL,"Hunterdon, Readington Twp",Readington Holland Brook School (McGowan),https://www9.state.nj.us/DEP_WaterWatch_public/JSP/Scheds.jsp?tinwsys=3943&active1=A,52 READINGTON RD Whitehouse Station NJ 08889,40.5913401,-74.75400599999999,NJ1022374
239,239,NJ1022300,READINGTON MIDDLE SCHOOL,"Hunterdon, Readington Twp","Readington MS Well #1 (McGowan) Schedule with Wes Santo, wsanto@readington.k12.nj.us",https://www9.state.nj.us/DEP_WaterWatch_public/JSP/Scheds.jsp?tinwsys=3633&active1=A,48 READINGTON RD Whitehouse Station NJ 08889,40.5898569,-74.7591261,NJ1022300
240,240,NJ1022379,READINGTON MIDDLE SCHOOL WELL #2,"Hunterdon, Readington Twp","Readington MS-Well #2 (McGowan) Schedule with Wes Santo, wsanto@readington.k12.nj.us",https://www9.state.nj.us/DEP_WaterWatch_public/JSP/Scheds.jsp?tinwsys=8787&active1=A,48 READINGTON RD Whitehouse Station NJ 08870,40.5898569,-74.7591261,NJ1022379
241,241,NJ1022306 ,THREE BRIDGES SCHOOL,"Hunterdon, Readington Twp",Readington Three Bridges School (McGowan),https://www9.state.nj.us/DEP_WaterWatch_public/JSP/Scheds.jsp?tinwsys=3696&active1=A,480 MAIN ST Three Bridges NJ 08887,40.524316,-74.7954196,NJ1022306
242,242,NJ1021405,REAGENT CHEMICAL & RESEARCH,"Hunterdon, Raritan Twp","Reagent Chemical & Research, Inc. (Must notify Bob Dritschel before going)",https://www9.state.nj.us/DEP_WaterWatch_public/JSP/Scheds.jsp?tinwsys=3548&active1=A,115 RT 202/31 Raritan Twp NJ 08822,40.4661124,-74.8614498,NJ1021405
243,243,NJ1902320,REDEEMER LUTHERAN CHURCH,"Sussex, Andover Twp",Redeemer Lutheran Church (McGowan),https://www9.state.nj.us/DEP_WaterWatch_public/JSP/Scheds.jsp?tinwsys=8103&active1=A,37 NEWTON SPARTA RD Andover Twp NJ 07860,41.0428868,-74.7351242,NJ1902320
244,244,NJ1415307,REFORMED CHURCH IN KINNELON,"Morris, Kinnelon Boro",Reformed Church in Kinnelon (McGowan),https://www9.state.nj.us/DEP_WaterWatch_public/JSP/Scheds.jsp?tinwsys=5085&active1=A,155 KINNELON RD Kinnelon NJ 07405,40.9905933,-74.3820684,NJ1415307
245,245,NJ1021429,LIBERTY FOOD MART,"Hunterdon, Raritan Twp",Ringoes Liberty Food Mart,https://www9.state.nj.us/DEP_WaterWatch_public/JSP/Scheds.jsp?tinwsys=3631&active1=A,118 RT 202/31 Raritan Twp NJ 08822,40.4667075,-74.8596452,NJ1021429
246,246,NJ1611371,STONETOWN BALLFIELD,"Passaic, Ringwood Boro",Ringwood - Stonetown Ballfield *SEASONAL*,https://www9.state.nj.us/DEP_WaterWatch_public/JSP/Scheds.jsp?tinwsys=9404&active1=A,MARY ROTH DR Ringwood NJ 07456,41.079493,-74.3084105,NJ1611371
247,247,NJ1611002,RINGWOOD WATER DEPARTMENT,"Passaic, Ringwood Boro",Ringwood Boro,https://www9.state.nj.us/DEP_WaterWatch_public/JSP/Scheds.jsp?tinwsys=505&active1=A,60 MARGARET KING AVE Ringwood NJ 07456,41.1294556,-74.2652038,NJ1611002
248,248,NJ1611326,RINGWOOD STATE PARK (COUNTRY,"Passaic, Ringwood Boro",Ringwood State Park - Country Store,https://www9.state.nj.us/DEP_WaterWatch_public/JSP/Scheds.jsp?tinwsys=6769&active1=A,SLOATSBURG RD Ringwood NJ 07456,41.1261861,-74.2610585,NJ1611326
249,249,NJ1611306,RINGWOOD ST PARK-MAIN WE,"Passaic, Ringwood Boro",Ringwood State Park - Main Well @ Manor,https://www9.state.nj.us/DEP_WaterWatch_public/JSP/Scheds.jsp?tinwsys=6688&active1=A,1304 SLOATSBURG RD Ringwood Boro NJ 07456,41.1389825,-74.25531,NJ1611306
250,250,NJ1611368,,"Passaic, Ringwood Boro",Ringwood State Park - Thunder Mountain (only open Wed-Sun),https://www9.state.nj.us/DEP_WaterWatch_public/JSP/Scheds.jsp?tinwsys=6771&active1=A,,,,
251,251,NJ1611305,,"Passaic, Ringwood Boro",Ringwood State Park: Shepherd Lake Lodge *SEASONAL* - check status,https://www9.state.nj.us/DEP_WaterWatch_public/JSP/Scheds.jsp?tinwsys=6687&active1=A,,,,
252,252,NJ1611325,,"Passaic, Ringwood Boro",Ringwood State Park: Shepherd Lake Upper *SEASONAL*,https://www9.state.nj.us/DEP_WaterWatch_public/JSP/Scheds.jsp?tinwsys=6768&active1=A,,,,
253,253,NJ2113002,,"Warren, Knowlton Twp",Riverside Mobile Home Park,https://www9.state.nj.us/DEP_WaterWatch_public/JSP/Scheds.jsp?tinwsys=680&active1=A,,,,
254,254,NJ1438335,,"Morris, Washington Twp",Rock Spring Park (Wash Twp Senior) *SEASONAL* (Check Schedule),https://www9.state.nj.us/DEP_WaterWatch_public/JSP/Scheds.jsp?tinwsys=6787&active1=A,,,,
255,255,NJ1434001,,"Morris, Rockaway Boro",Rockaway Boro,https://www9.state.nj.us/DEP_WaterWatch_public/JSP/Scheds.jsp?tinwsys=573&active1=A,,,,
256,256,NJ1435318,,"Morris, Rockaway Twp",Rockaway Twp - DPW Garage,https://www9.state.nj.us/DEP_WaterWatch_public/JSP/Scheds.jsp?tinwsys=6240&active1=A,,,,
257,257,NJ1435317,,"Morris, Rockaway Twp",Rockaway Twp - Health Center/Rockaway,https://www9.state.nj.us/DEP_WaterWatch_public/JSP/Scheds.jsp?tinwsys=6239&active1=A,,,,
258,258,NJ1435002,,"Morris, Rockaway Twp",Rockaway Twp - Main,https://www9.state.nj.us/DEP_WaterWatch_public/JSP/Scheds.jsp?tinwsys=575&active1=A,,,,
259,259,NJ1401300,,"Morris, Boonton Twp",Rockaway Valley School,https://www9.state.nj.us/DEP_WaterWatch_public/JSP/Scheds.jsp?tinwsys=5405&active1=A,,,,
260,260,NJ0718001,,"Essex, Roseland Boro",Roseland,https://www9.state.nj.us/DEP_WaterWatch_public/JSP/Scheds.jsp?tinwsys=131&active1=A,,,,
261,261,NJ1016324,,"Hunterdon, Kingwood Twp",Route 12 Business Park ,https://www9.state.nj.us/DEP_WaterWatch_public/JSP/Scheds.jsp?tinwsys=8893&active1=A,,,,
262,262,NJ1106344,,"Mercer, Hopewell Twp",Route 31 Professional Bldg (MARLBORO),https://www9.state.nj.us/DEP_WaterWatch_public/JSP/Scheds.jsp?tinwsys=3342&active1=A,,,,
263,263,NJ1436006,,"Morris, Roxbury Twp",Roxbury Twp - DPW Bldg,https://www9.state.nj.us/DEP_WaterWatch_public/JSP/Scheds.jsp?tinwsys=583&active1=A,,,,
264,264,NJ1436006,,"Morris, Roxbury Twp",Roxbury Twp - Evergreen,https://www9.state.nj.us/DEP_WaterWatch_public/JSP/Scheds.jsp?tinwsys=583&active1=A,,,,
265,265,NJ1436003,,"Morris, Roxbury Twp",Roxbury Twp - Shore ,https://www9.state.nj.us/DEP_WaterWatch_public/JSP/Scheds.jsp?tinwsys=580&active1=A,,,,
266,266,NJ1436004,,"Morris, Roxbury Twp",Roxbury Twp - Skyview,https://www9.state.nj.us/DEP_WaterWatch_public/JSP/Scheds.jsp?tinwsys=581&active1=A,,,,
267,267,NJ1924346,,"Sussex, Wantage",Royal Pontiac Buick GMC,https://www9.state.nj.us/DEP_WaterWatch_public/JSP/Scheds.jsp?tinwsys=7062&active1=A,,,,
268,268,NJ1615404,,"Passaic, West Milford Twp",S&S Deli,https://www9.state.nj.us/DEP_WaterWatch_public/JSP/Scheds.jsp?tinwsys=7295&active1=A,,,,
269,269,NJ1910338 ,,"Sussex, Hampton Twp",Sacred Heart Center - Salesian Sisters,https://www9.state.nj.us/DEP_WaterWatch_public/JSP/Scheds.jsp?tinwsys=7807&active1=A,,,,
270,270,NJ1432356,,"Morris, Randolph",Salem 10 Plaza,https://www9.state.nj.us/DEP_WaterWatch_public/JSP/Scheds.jsp?tinwsys=9230&active1=A,,,,
271,271,NJ1910302,,"Sussex, Hampton Twp",Salesian Sisters/Camp Auxilium (*+seasonal TC & pool*),https://www9.state.nj.us/DEP_WaterWatch_public/JSP/Scheds.jsp?tinwsys=7650&active1=A,,,,
272,272,NJ1427400,,"Morris, Mount Olive Twp",Sandshore Industrial Condo Assoc.,https://www9.state.nj.us/DEP_WaterWatch_public/JSP/Scheds.jsp?tinwsys=8601&active1=A,,,,
273,273,NJ1905361,,"Sussex, Frankford Twp",SCARC - Augusta Center for Persons with disabilities (McGowan),https://www9.state.nj.us/DEP_WaterWatch_public/JSP/Scheds.jsp?tinwsys=9518&active1=A,,,,
274,274,NJ1910342,,"Sussex, Hampton Twp",SCARC Inc (Comm Dev Center) (McGowan),https://www9.state.nj.us/DEP_WaterWatch_public/JSP/Scheds.jsp?tinwsys=9175&active1=A,,,,
275,275,NJ1905354,,"Sussex, Frankford Twp",SCARC Professional Building (McGowan),https://www9.state.nj.us/DEP_WaterWatch_public/JSP/Scheds.jsp?tinwsys=9185&active1=A,,,,
276,276,NJ1436386,,"Morris, Roxbury",SCE LLC *They provide schedule*,https://www9.state.nj.us/DEP_WaterWatch_public/JSP/Scheds.jsp?tinwsys=9417&active1=A,,,,
277,277,NJ1924350,,"Sussex, Wantage",Second Home Child Care (Sweeny's) - McGowan,https://www9.state.nj.us/DEP_WaterWatch_public/JSP/Scheds.jsp?tinwsys=7066&active1=A,,,,
278,278,NJ1810330,,"Somerset, Hillsborough Twp.",Seedlings Hillsborough School,https://www9.state.nj.us/DEP_WaterWatch_public/JSP/Scheds.jsp?tinwsys=7776&active1=A,,,,
279,279,NJ1615446,,"Passaic, West Milford Twp",Shiloh Bible Camp,https://www9.state.nj.us/DEP_WaterWatch_public/JSP/Scheds.jsp?tinwsys=9052&active1=A,,,,
280,280,NJ2107319,,"Warren, Greenwich",Shops at Greenwich,https://www9.state.nj.us/DEP_WaterWatch_public/JSP/Scheds.jsp?tinwsys=8459&active1=A,,,,
281,281,NJ1523325,,"Ocean, Plumstead Twp",Sigma Corporation (MARLBORO),https://www9.state.nj.us/DEP_WaterWatch_public/JSP/Scheds.jsp?tinwsys=8973&active1=A,,,,
282,282,NJ1421305,,"Morris, Montville Twp",Signature Care Home (St Alberts)  - McGowan,https://www9.state.nj.us/DEP_WaterWatch_public/JSP/Scheds.jsp?tinwsys=5166&active1=A,,,,
283,283,NJ1422001,,"Morris, Morris Twp",Sisters of Charity St Elizabeth (pickup 2nd Tues) Denise- 973 290 5390,https://www9.state.nj.us/DEP_WaterWatch_public/JSP/Scheds.jsp?tinwsys=537&active1=A,,,,
284,284,NJ1924315,,"Sussex, Wantage","Skylands Craft & Wine Garden *Call Susan ahead to schedule, 973-534-0901*",https://www9.state.nj.us/DEP_WaterWatch_public/JSP/Scheds.jsp?tinwsys=6974&active1=A,,,,
285,285,NJ1414390,,"Morris, Jefferson Twp",Skylands Medical- Hopatcong,https://www9.state.nj.us/DEP_WaterWatch_public/JSP/Scheds.jsp?tinwsys=4928&active1=A,,,,
286,286,NJ1922398,,"Sussex, Vernon Twp",Someplace Special Association (sample both POE? Ask Max),https://www9.state.nj.us/DEP_WaterWatch_public/JSP/Scheds.jsp?tinwsys=8934&active1=A,,,,
287,287,NJ1803304,,"Somerset, Bernardsville Boro","Somerset Hills Country Club (closed Mondays. Notify Angel for distribution access, 732 921 3965)",https://www9.state.nj.us/DEP_WaterWatch_public/JSP/Scheds.jsp?tinwsys=7011&active1=A,,,,
288,288,NJ1801310 ,,"Somerset, Bedminster Twp",Somerset Hills Learning Institute (MARLBORO)(McGowan),https://www9.state.nj.us/DEP_WaterWatch_public/JSP/Scheds.jsp?tinwsys=8874&active1=A,,,,
289,289,NJ1223001,,"Middlesex, South River",South River (MARLBORO) - Add info,https://www9.state.nj.us/DEP_WaterWatch_public/JSP/Scheds.jsp?tinwsys=312&active1=A,,,,
290,290,NJ1414336,,"Morris, Jefferson Twp",Speedy Mart,https://www9.state.nj.us/DEP_WaterWatch_public/JSP/Scheds.jsp?tinwsys=4762&active1=A,,,,
291,291,NJ1113301,,"Mercer, West Windsor Twp",SRI International (MARLBORO) *check some with Barb*,https://www9.state.nj.us/DEP_WaterWatch_public/JSP/Scheds.jsp?tinwsys=4947&active1=A,,,,
292,292,NJ1021416 ,,"Hunterdon, Raritan Twp",SS & B Professional Office Bldg (McGowan),https://www9.state.nj.us/DEP_WaterWatch_public/JSP/Scheds.jsp?tinwsys=3619&active1=A,,,,
293,293,NJ1802313,,"Somerset, Bernards Twp",St. John on the Mountain (Must be before 8:30AM or after 2:30PM -Pre-K/COVID) ,https://www9.state.nj.us/DEP_WaterWatch_public/JSP/Scheds.jsp?tinwsys=7007&active1=A,,,,
294,294,NJ1902346,,"Sussex, Andover Twp",St. Paul's Abbey (&Willowglen),https://www9.state.nj.us/DEP_WaterWatch_public/JSP/Scheds.jsp?tinwsys=6878&active1=A,,,,
295,295,NJ1108300,,"Mercer, Pennington Boro",Stacy's Cream King (MARLBORO) *SEASONAL 4/1-10/31*,https://www9.state.nj.us/DEP_WaterWatch_public/JSP/Scheds.jsp?tinwsys=4865&active1=A,,,,
296,296,NJ1427303,,"Morris, Mt Olive Twp",Stephens State Park,https://www9.state.nj.us/DEP_WaterWatch_public/JSP/Scheds.jsp?tinwsys=5486&active1=A,,,,
297,297,NJ1920317,,"Sussex, Stillwater Twp",Stillwater Twp Elementary ,https://www9.state.nj.us/DEP_WaterWatch_public/JSP/Scheds.jsp?tinwsys=7653&active1=A,,,,
298,298,NJ1917304,,"Sussex, Sandyston Twp",Stokes Forest - Depot,https://www9.state.nj.us/DEP_WaterWatch_public/JSP/Scheds.jsp?tinwsys=7200&active1=A,,,,
299,299,NJ1917316,,"Sussex, Sandyston Twp",Stokes Forest - Kittle,https://www9.state.nj.us/DEP_WaterWatch_public/JSP/Scheds.jsp?tinwsys=7267&active1=A,,,,
300,300,NJ1917318,,"Sussex, Sandyston Twp",Stokes Forest - LO New,https://www9.state.nj.us/DEP_WaterWatch_public/JSP/Scheds.jsp?tinwsys=7269&active1=A,,,,
301,301,NJ1917302,,"Sussex, Sandyston Twp",Stokes Forest - LO Old,https://www9.state.nj.us/DEP_WaterWatch_public/JSP/Scheds.jsp?tinwsys=7198&active1=A,,,,
302,302,NJ1917312,,"Sussex, Sandyston Twp",Stokes Forest - Office,https://www9.state.nj.us/DEP_WaterWatch_public/JSP/Scheds.jsp?tinwsys=7208&active1=A,,,,
303,303,NJ1917303 ,,"Sussex, Sandyston Twp",Stokes Forest - Regional Shop (Need Aerator Key),https://www9.state.nj.us/DEP_WaterWatch_public/JSP/Scheds.jsp?tinwsys=7199&active1=A,,,,
304,304,NJ1917310 ,,"Sussex, Sandyston Twp",Stokes Forest - Shotwell (Need Aerator key),https://www9.state.nj.us/DEP_WaterWatch_public/JSP/Scheds.jsp?tinwsys=7206&active1=A,,,,
305,305,NJ1917305,,"Sussex, Sandyston Twp",Stokes State Forest - Haskins Group *SEASONAL*,https://www9.state.nj.us/DEP_WaterWatch_public/JSP/Scheds.jsp?tinwsys=7201&active1=A,,,,
306,306,NJ1917342,,"Sussex, Sandyston Twp",Stokes State Forest - Lake Ashroe *SEASONAL*,https://www9.state.nj.us/DEP_WaterWatch_public/JSP/Scheds.jsp?tinwsys=7352&active1=A,,,,
307,307,NJ1917309,,"Sussex, Sandyston Twp",Stokes State Forest - Steam Mill *SEASONAL* - Now is all year. Qtly per Rebecca,https://www9.state.nj.us/DEP_WaterWatch_public/JSP/Scheds.jsp?tinwsys=7205&active1=A,,,,
308,308,NJ1917314,,"Sussex, Sandyston Twp",Stokes State Forest - Stony Lake *SEASONAL*,https://www9.state.nj.us/DEP_WaterWatch_public/JSP/Scheds.jsp?tinwsys=7209&active1=A,,,,
309,309,NJ0108009,,"Atlantic, Egg Harbor Twp",Stoneyfield MHP (MARLBORO - McGowan) ,https://www9.state.nj.us/DEP_WaterWatch_public/JSP/Scheds.jsp?tinwsys=108&active1=A,,,,
310,310,NJ0907001,,"Hudson, Kearny Town",Suez - Kearny,https://www9.state.nj.us/DEP_WaterWatch_public/JSP/Scheds.jsp?tinwsys=178&active1=A,,,,
311,311,NJ0717001,,"Essex, Orange City",Suez - Orange,https://www9.state.nj.us/DEP_WaterWatch_public/JSP/Scheds.jsp?tinwsys=130&active1=A,,,,
312,312,NJ2013001,,"Union, Rahway City",Suez - Rahway,https://www9.state.nj.us/DEP_WaterWatch_public/JSP/Scheds.jsp?tinwsys=760&active1=A,,,,
313,313,NJ1918351,,"Sussex, Sparta Twp.",Sussex Charter School A (McGowan),https://www9.state.nj.us/DEP_WaterWatch_public/JSP/Scheds.jsp?tinwsys=9191&active1=A,,,,
314,314,NJ1918352,,"Sussex, Sparta Twp.",Sussex Charter School B (McGowan),https://www9.state.nj.us/DEP_WaterWatch_public/JSP/Scheds.jsp?tinwsys=9192&active1=A,,,,
315,315,NJ1910308,,"Sussex, Hampton Twp",Sussex Honda,https://www9.state.nj.us/DEP_WaterWatch_public/JSP/Scheds.jsp?tinwsys=7718&active1=A,,,,
316,316,NJ1432336,,"Morris, Randolph",Sussex Tpk Condo Complex Assoc (Beta),https://www9.state.nj.us/DEP_WaterWatch_public/JSP/Scheds.jsp?tinwsys=6070&active1=A,,,,
317,317,NJ1922302,,"Sussex, Vernon Twp",Tall Timbers - Well 1 ,https://www9.state.nj.us/DEP_WaterWatch_public/JSP/Scheds.jsp?tinwsys=7738&active1=A,,,,
318,318,NJ1922401,,"Sussex, Vernon Twp",Tall Timbers POA (well 5),https://www9.state.nj.us/DEP_WaterWatch_public/JSP/Scheds.jsp?tinwsys=9102&active1=A,,,,
319,319,NJ1922383,,"Sussex, Vernon Twp",Tall Timbers Well 2 *SEASONAL* ,https://www9.state.nj.us/DEP_WaterWatch_public/JSP/Scheds.jsp?tinwsys=8056&active1=A,,,,
320,320,NJ1922384,,"Sussex, Vernon Twp",Tall Timbers Well 3&4 *SEASONAL* ,https://www9.state.nj.us/DEP_WaterWatch_public/JSP/Scheds.jsp?tinwsys=8057&active1=A,,,,
321,321,NJ1326373,,"Monmouth, Manalapan Twp",Tech Park #1 (MARLBORO),https://www9.state.nj.us/DEP_WaterWatch_public/JSP/Scheds.jsp?tinwsys=8726&active1=A,,,,
322,322,NJ1006300,,"Hunterdon, Clinton Twp",Teen Challenge,https://www9.state.nj.us/DEP_WaterWatch_public/JSP/Scheds.jsp?tinwsys=3533&active1=A,,,,
323,323,NJ1108301,,"Mercer, Pennington Boro",The Pennington School (MARLBORO),https://www9.state.nj.us/DEP_WaterWatch_public/JSP/Scheds.jsp?tinwsys=4866&active1=A,,,,
324,324,NJ1021408,,"Hunterdon, Raritan Twp",The Pointe Shopping Center (ABC Assoc),https://www9.state.nj.us/DEP_WaterWatch_public/JSP/Scheds.jsp?tinwsys=3551&active1=A,,,,
325,325,NJ1530375,,"Ocean, Stafford Twp",Tilton Fitness/Meridian (MARLBORO),https://www9.state.nj.us/DEP_WaterWatch_public/JSP/Scheds.jsp?tinwsys=6373&active1=A,,,,
326,326,NJ1106300 ,,"Mercer, Hopewell Twp",Titusville Academy of Princeton (MARLBORO),https://www9.state.nj.us/DEP_WaterWatch_public/JSP/Scheds.jsp?tinwsys=3183&active1=A,,,,
327,327,NJ1615310,,"Passaic, West Milford Twp",TJ's Pizza,https://www9.state.nj.us/DEP_WaterWatch_public/JSP/Scheds.jsp?tinwsys=5664&active1=A,,,,
328,328,NJ1106394,,"Mercer, Hopewell Twp",Toddler Village at Stony Brook (ELA Village) (MARLBORO),https://www9.state.nj.us/DEP_WaterWatch_public/JSP/Scheds.jsp?tinwsys=4781&active1=A,,,,
329,329,NJ1904363,,"Sussex, Byram Twp",Tomahawk Lake - Catering *SEASONAL*,https://www9.state.nj.us/DEP_WaterWatch_public/JSP/Scheds.jsp?tinwsys=7248&active1=A,,,,
330,330,NJ1904362,,"Sussex, Byram Twp",Tomahawk Lake - Garage *SEASONAL*,https://www9.state.nj.us/DEP_WaterWatch_public/JSP/Scheds.jsp?tinwsys=7190&active1=A,,,,
331,331,NJ1904361,,"Sussex, Byram Twp",Tomahawk Lake - Rides *SEASONAL*,https://www9.state.nj.us/DEP_WaterWatch_public/JSP/Scheds.jsp?tinwsys=7189&active1=A,,,,
332,332,NJ1435310 ,,"Morris, Rockaway Twp",Tony's Pizzeria (formerly Telemark pizza),https://www9.state.nj.us/DEP_WaterWatch_public/JSP/Scheds.jsp?tinwsys=6232&active1=A,,,,
333,333,NJ1806329,,"Somerset, Bridgewater Twp",Top Corner Sports (MARLBORO),https://www9.state.nj.us/DEP_WaterWatch_public/JSP/Scheds.jsp?tinwsys=7323&active1=A,,,,
334,334,NJ1910346,,"Sussex, Hampton Twp",Tractor Supply Co. (#2435),https://www9.state.nj.us/DEP_WaterWatch_public/JSP/Scheds.jsp?tinwsys=9550&active1=A,,,,
335,335,NJ1021412,,"Hunterdon, Raritan Twp",Tradition Res Healthcare - Flemington (Not McGowan),https://www9.state.nj.us/DEP_WaterWatch_public/JSP/Scheds.jsp?tinwsys=3555&active1=A,,,,
336,336,NJ2110304,,"Warren, Harmony Twp.",Traditions Residential Healthcare - Harmony Twp (McGowan),https://www9.state.nj.us/DEP_WaterWatch_public/JSP/Scheds.jsp?tinwsys=8524&active1=A,,,,
337,337,NJ1908326,,"Sussex, Green Twp.",Tranquility General Store,https://www9.state.nj.us/DEP_WaterWatch_public/JSP/Scheds.jsp?tinwsys=9169&active1=A,,,,
338,338,NJ1002314,,"Hunterdon, Bethlehem Twp",Unity Spirtual Center,https://www9.state.nj.us/DEP_WaterWatch_public/JSP/Scheds.jsp?tinwsys=3453&active1=A,,,,
339,339,NJ0263320,,"Bergen, Upper Saddle River",Upper Saddle River Reformed Church (McGowan),https://www9.state.nj.us/DEP_WaterWatch_public/JSP/Scheds.jsp?tinwsys=1625&active1=A,,,,
340,340,NJ1924374,,"Sussex, Wantage Twp",Ventimiglia Vineyard *NEW*,https://www9.state.nj.us/DEP_WaterWatch_public/JSP/Scheds.jsp?tinwsys=9502&active1=A,,,,
341,341,NJ1427373,,"Morris, Mount Olive Twp",Veolia Environmental Services (McGowan),https://www9.state.nj.us/DEP_WaterWatch_public/JSP/Scheds.jsp?tinwsys=4471&active1=A,,,,
342,342,NJ1428300,,"Morris, Netcong Boro",Verizon Netcong,https://www9.state.nj.us/DEP_WaterWatch_public/JSP/Scheds.jsp?tinwsys=4611&active1=A,,,,
343,343,NJ1922314,,"Sussex, Vernon Twp","Vernon Lounsberry/Rolling Hills (Ron samples, we do check)",https://www9.state.nj.us/DEP_WaterWatch_public/JSP/Scheds.jsp?tinwsys=7750&active1=A,,,,
344,344,NJ1922399,,"Sussex, Vernon Twp",Vernon Township PAL,https://www9.state.nj.us/DEP_WaterWatch_public/JSP/Scheds.jsp?tinwsys=8965&active1=A,,,,
345,345,NJ1922300,,"Sussex, Vernon Twp","Vernon Walnut Ridge School (Ron samples, we do check)",https://www9.state.nj.us/DEP_WaterWatch_public/JSP/Scheds.jsp?tinwsys=7736&active1=A,,,,
346,346,NJ1427354,,"Morris, Mount Olive",Vincenzo's Pizza,https://www9.state.nj.us/DEP_WaterWatch_public/JSP/Scheds.jsp?tinwsys=4393&active1=A,,,,
347,347,NJ1019314,,"Hunterdon, Lebanon Twp",Voorhees HS (McGowan),https://www9.state.nj.us/DEP_WaterWatch_public/JSP/Scheds.jsp?tinwsys=4236&active1=A,,,,
348,348,NJ1813318 ,,"Somerset, Montgomery",Waldorf School of Princeton (Marlboro),https://www9.state.nj.us/DEP_WaterWatch_public/JSP/Scheds.jsp?tinwsys=7931&active1=A,,,,
349,349,NJ0264001,,"Bergen, Waldwick Boro",Waldwick (Neil & Mike),https://www9.state.nj.us/DEP_WaterWatch_public/JSP/Scheds.jsp?tinwsys=72&active1=A,,,,
350,350,NJ1910337,,"Sussex, Hampton Twp",Walmart#2604 (McGowan),https://www9.state.nj.us/DEP_WaterWatch_public/JSP/Scheds.jsp?tinwsys=7806&active1=A,,,,
351,351,NJ2104343,,"Warren, Blairstown Twp.",Walnut Village Medical Center (formerly Skylands Med Columbia),https://www9.state.nj.us/DEP_WaterWatch_public/JSP/Scheds.jsp?tinwsys=8943&active1=A,,,,
352,352,NJ2116328,,"Warren, Mansfield Twp",Walter Hoving Home (McGowan),https://www9.state.nj.us/DEP_WaterWatch_public/JSP/Scheds.jsp?tinwsys=8332&active1=A,,,,
353,353,NJ1613002,,"Passaic, Wanaque Boro",Wanaque,https://www9.state.nj.us/DEP_WaterWatch_public/JSP/Scheds.jsp?tinwsys=511&active1=A,,,,
354,354,NJ1924366,,"Sussex, Wantage",Wantage Pro Building - sch w/ Dr. Wood 862-354-7220. ,https://www9.state.nj.us/DEP_WaterWatch_public/JSP/Scheds.jsp?tinwsys=9321&active1=A,,,,
355,355,NJ2116004,,"Warren, Manfield Twp",Warren Haven Rehab & Nursing,https://www9.state.nj.us/DEP_WaterWatch_public/JSP/Scheds.jsp?tinwsys=686&active1=A,,,,
356,356,NJ0435375,,"Camden, Waterford Twp",Waterford - ES (MARLBORO),https://www9.state.nj.us/DEP_WaterWatch_public/JSP/Scheds.jsp?tinwsys=2107&active1=A,,,,
357,357,NJ0435367,,"Camden, Waterford Twp",Waterford - Thomas Richards ES (MARLBORO),https://www9.state.nj.us/DEP_WaterWatch_public/JSP/Scheds.jsp?tinwsys=2099&active1=A,,,,
358,358,NJ1904456,,"Sussex, Byram Twp",Waterloo Vilage - Office,https://www9.state.nj.us/DEP_WaterWatch_public/JSP/Scheds.jsp?tinwsys=9441&active1=A,,,,
359,359,NJ1904342,,"Sussex, Byram Twp",Waterloo Village - Comfort Station,https://www9.state.nj.us/DEP_WaterWatch_public/JSP/Scheds.jsp?tinwsys=7108&active1=A,,,,
360,360,NJ1922307,,"Sussex, Vernon Twp",Wawayanda - Bath House *SEASONAL*,https://www9.state.nj.us/DEP_WaterWatch_public/JSP/Scheds.jsp?tinwsys=7743&active1=A,,,,
361,361,NJ1922390,,"Sussex, Vernon Twp",Wawayanda - Goens House *SEASONAL*,https://www9.state.nj.us/DEP_WaterWatch_public/JSP/Scheds.jsp?tinwsys=8063&active1=A,,,,
362,362,NJ1922395,,"Sussex, Vernon Twp",Wawayanda Boat House,https://www9.state.nj.us/DEP_WaterWatch_public/JSP/Scheds.jsp?tinwsys=8860&active1=A,,,,
363,363,NJ1922306 ,,"Sussex, Vernon Twp",Waywayanda State Park - Park Office,https://www9.state.nj.us/DEP_WaterWatch_public/JSP/Scheds.jsp?tinwsys=7742&active1=A,,,,
364,364,NJ1615344,,"Passaic, West Milford Twp",West Milford Town Hall (we ARE now sampling,https://www9.state.nj.us/DEP_WaterWatch_public/JSP/Scheds.jsp?tinwsys=5820&active1=A,,,,
365,365,NJ1438300,,"Morris, Washington Twp",West Morris Central High (McGowan),https://www9.state.nj.us/DEP_WaterWatch_public/JSP/Scheds.jsp?tinwsys=6640&active1=A,,,,
366,366,NJ1912322,,"Sussex, Hopatcong Boro",West Side United Methodist Church,https://www9.state.nj.us/DEP_WaterWatch_public/JSP/Scheds.jsp?tinwsys=8048&active1=A,,,,
367,367,NJ1439001,,"Morris, Mine Hill Twp",Wharton,https://www9.state.nj.us/DEP_WaterWatch_public/JSP/Scheds.jsp?tinwsys=591&active1=A,,,,
368,368,NJ2123310,,"Warren, White Twp",White Twp Consolidated School (McGowan) - main&backup well,https://www9.state.nj.us/DEP_WaterWatch_public/JSP/Scheds.jsp?tinwsys=8515&active1=A,,,,
369,369,NJ1904320,,"Sussex, Byram Twp",Wild West City,https://www9.state.nj.us/DEP_WaterWatch_public/JSP/Scheds.jsp?tinwsys=7026&active1=A,,,,
370,370,NJ1106312,,"Mercer, Hopewell Twp",Wildflowers Restaurant (MARLBORO),https://www9.state.nj.us/DEP_WaterWatch_public/JSP/Scheds.jsp?tinwsys=3252&active1=A,,,,
371,371,NJ1414303,,"Morris, Jefferson Twp ",Windlass Restaurant,https://www9.state.nj.us/DEP_WaterWatch_public/JSP/Scheds.jsp?tinwsys=4607&active1=A,,,,
372,372,NJ1615454,,"Passaic, West Milford Twp",WMBOE Hillcrest Concession/Ballfield (SEASONAL),https://www9.state.nj.us/DEP_WaterWatch_public/JSP/Scheds.jsp?tinwsys=9405&active1=A,,,,
373,373,NJ1615325,,"Passaic, West Milford Twp",WMBOE Macopin Middle School *AGRA DOES SYS CHECKS NOW*,https://www9.state.nj.us/DEP_WaterWatch_public/JSP/Scheds.jsp?tinwsys=5740&active1=A,,,,
374,374,NJ1615324,,"Passaic, West Milford Twp",WMBOE Maple Road School,https://www9.state.nj.us/DEP_WaterWatch_public/JSP/Scheds.jsp?tinwsys=5739&active1=A,,,,
375,375,NJ1615329 ,,"Passaic, West Milford Twp",WMBOE Marshall Hill School,https://www9.state.nj.us/DEP_WaterWatch_public/JSP/Scheds.jsp?tinwsys=5744&active1=A,,,,
376,376,NJ1615330,,"Passaic, West Milford Twp",WMBOE Paradise Knoll School,https://www9.state.nj.us/DEP_WaterWatch_public/JSP/Scheds.jsp?tinwsys=5745&active1=A,,,,
377,377,NJ1615312,,"Passaic, West Milford Twp",WMBOE Upper Greenwood Lake School,https://www9.state.nj.us/DEP_WaterWatch_public/JSP/Scheds.jsp?tinwsys=5666&active1=A,,,,
378,378,NJ1615326,,"Passaic, West Milford Twp",WMBOE West Milford High School,https://www9.state.nj.us/DEP_WaterWatch_public/JSP/Scheds.jsp?tinwsys=5741&active1=A,,,,
379,379,NJ1615327 ,,"Passaic, West Milford Twp",WMBOE Westbrook School,https://www9.state.nj.us/DEP_WaterWatch_public/JSP/Scheds.jsp?tinwsys=5742&active1=A,,,,
380,380,NJ2109314,,"Warren, Hardwick Twp",Worthington State Park - Downriver Camp *SEASONAL*,https://www9.state.nj.us/DEP_WaterWatch_public/JSP/Scheds.jsp?tinwsys=8495&active1=A,,,,
381,381,NJ2109313,,"Warren, Hardwick Twp",Worthington State Park - Office (All year per Ernie),https://www9.state.nj.us/DEP_WaterWatch_public/JSP/Scheds.jsp?tinwsys=8494&active1=A,,,,
382,382,NJ2109316,,"Warren, Hardwick Twp",Worthington State Park - Upriver Camp *SEASONAL*,https://www9.state.nj.us/DEP_WaterWatch_public/JSP/Scheds.jsp?tinwsys=8497&active1=A,,,,
383,383,NJ1106337,,"Mercer, Hopewell Twp",Zydus Pharmaceuticals (MARLBORO),https://www9.state.nj.us/DEP_WaterWatch_public/JSP/Scheds.jsp?tinwsys=3335&active1=A,,,,
